{
"type": "FeatureCollection",
"generator": "overpass-turbo",
"copyright": "The data included in this document is from www.openstreetmap.org. The data is made available under ODbL.",
"timestamp": "2024-03-19T19:09:29Z",
"name": "Russian_citycenter",
"features": [
{ "type": "Feature", "id": "node/26903504", "properties": { "@id": "node/26903504", "addr:country": "RU", "addr:region": "Республика Карелия", "admin_level": "4", "capital": "4", "contact:website": "http://www.petrozavodsk-mo.ru", "ele": "60", "int_name": "Petrozavodsk", "name": "Петрозаводск", "name:ca": "Petrozavodsk", "name:cs": "Petrozavodsk", "name:de": "Petrosawodsk", "name:en": "Petrozavodsk", "name:es": "Petrozavodsk", "name:et": "Petroskoi", "name:eu": "Petrozavodsk", "name:fi": "Petroskoi", "name:fr": "Petrozavodsk", "name:hr": "Petrozavodsk", "name:hu": "Petrozavodsk", "name:ko": "페트로자보츠크", "name:krl": "Petroskoi", "name:lt": "Petrozavodskas", "name:pl": "Pietrozawodsk", "name:ru": "Петрозаводск", "name:ru:word_stress": "Петрозаво́дск", "name:sk": "Petrozavodsk", "name:sr": "Петрозаводск", "name:sv": "Petrozavodsk", "name:uk": "Петрозаводськ", "name:zh": "彼得罗扎沃茨克", "name:zh-Hans": "彼得罗扎沃茨克", "name:zh-Hant": "彼得羅扎沃茨克", "official_status": "ru:город", "place": "city", "population": "235793", "population:date": "2023-01-01", "wikidata": "Q1895", "wikimedia_commons": "Category:Petrozavodsk", "wikipedia": "ru:Петрозаводск", "wikipedia:en": "Petrozavodsk" }, "geometry": { "type": "Point", "coordinates": [ 34.390007, 61.7900426 ] } },
{ "type": "Feature", "id": "node/26951330", "properties": { "@id": "node/26951330", "addr:country": "RU", "addr:region": "Вологодская область", "admin_level": "4", "capital": "4", "int_name": "Vologda", "name": "Вологда", "name:ca": "Vólogda", "name:de": "Wologda", "name:en": "Vologda", "name:es": "Vólogda", "name:et": "Vologda", "name:eu": "Vologda", "name:fi": "Vologda", "name:fr": "Vologda", "name:hr": "Vologda", "name:hu": "Vologda", "name:ja": "ヴォログダ", "name:ko": "볼로그다", "name:lt": "Vologda", "name:pl": "Wołogda", "name:ru": "Вологда", "name:ru:word_stress": "Во́логда", "name:sk": "Vologda", "name:sr": "Вологда", "name:uk": "Вологда", "name:zh-Hans": "沃洛格达", "name:zh-Hant": "沃洛格達", "official_status": "ru:город", "place": "city", "population": "311628", "population:date": "2023-01-01", "start_date": "1147", "website": "https://vologda.gosuslugi.ru", "wikidata": "Q1957", "wikipedia": "ru:Вологда" }, "geometry": { "type": "Point", "coordinates": [ 39.893276, 59.218876 ] } },
{ "type": "Feature", "id": "node/27000366", "properties": { "@id": "node/27000366", "addr:country": "RU", "addr:district": "городской округ Тверь", "addr:region": "Тверская область", "admin_level": "4", "capital": "4", "name": "Тверь", "name:ar": "تفير", "name:be": "Цвер", "name:ca": "Tver", "name:de": "Twer", "name:en": "Tver", "name:et": "Tver", "name:eu": "Tver", "name:fi": "Tver", "name:fr": "Tver", "name:hr": "Tver", "name:hsb": "Twer", "name:hu": "Tver", "name:hy": "Տվեր", "name:ka": "ტვერი", "name:ko": "트베리", "name:lt": "Tverė", "name:nl": "Tver", "name:pl": "Twer", "name:ro": "Tver", "name:ru": "Тверь", "name:sk": "Tver", "name:sr": "Твер", "name:uk": "Тверь", "name:zh-Hans": "特维尔", "name:zh-Hant": "特維爾", "official_name": "город Тверь", "official_status": "ru:город", "old_name:1931-11-20--1990-07-16": "Калинин", "place": "city", "population": "414756", "population:date": "2023-01-01", "wikidata": "Q2288", "wikipedia": "ru:Тверь" }, "geometry": { "type": "Point", "coordinates": [ 35.9208284, 56.858675 ] } },
{ "type": "Feature", "id": "node/27017589", "properties": { "@id": "node/27017589", "addr:country": "RU", "addr:region": "Новгородская область", "admin_level": "4", "alt_name:ca": "Veliki Nòvgorod", "alt_name:de": "Groß-Nowgorod", "alt_name:en": "Great Novgorod", "capital": "4", "heritage": "1", "heritage:operator": "whc", "int_name": "Velikiy Novgorod", "name": "Великий Новгород", "name:ar": "فيليكي نوفغورود", "name:az": "Veliky Novqorod", "name:be": "Вялікі Ноўгарад", "name:be-tarask": "Вялікі Ноўгарад", "name:ca": "Nòvgorod", "name:cs": "Velký Novgorod", "name:de": "Weliki Nowgorod", "name:en": "Veliky Novgorod", "name:es": "Nóvgorod", "name:et": "Veliki Novgorod", "name:eu": "Novgorod", "name:fa": "ولیکی نووگورود", "name:fi": "Veliki Novgorod", "name:fr": "Novgorod", "name:hr": "Veliki Novgorod", "name:hsb": "Wjelikij Nowgorod", "name:hu": "Velikij Novgorod", "name:hy": "Մեծ Նովգորոդ", "name:is": "Hólmgarður", "name:ja": "ノヴゴロド", "name:ka": "დიდი ნოვგოროდი", "name:lt": "Naugardas", "name:ml": "വെലിക്കി നോവ്ഗൊറോഡ്", "name:nl": "Veliki Novgorod", "name:pl": "Nowogród Wielki", "name:ru": "Великий Новгород", "name:sk": "Velikij Novgorod", "name:sr": "Велики Новгород", "name:uk": "Великий Новгород", "name:zh-Hans": "大诺夫哥罗德", "name:zh-Hant": "大諾夫哥羅德", "official_status": "ru:город", "old_name": "Новгород", "place": "city", "population": "223191", "population:date": "2023-01-01", "start_date": "859", "wikidata": "Q2235", "wikipedia": "ru:Великий Новгород" }, "geometry": { "type": "Point", "coordinates": [ 31.2757862, 58.5209862 ] } },
{ "type": "Feature", "id": "node/27025179", "properties": { "@id": "node/27025179", "addr:country": "RU", "addr:district": "Гатчинский район", "addr:postcode": "188309", "addr:region": "Ленинградская область", "admin_level": "4", "capital": "4", "name": "Гатчина", "name:ca": "Gattxina", "name:de": "Gattschina", "name:en": "Gatchina", "name:es": "Gatchina", "name:et": "Gattšina", "name:eu": "Gatchina", "name:fi": "Hatsina", "name:gl": "Gatchina", "name:hr": "Gatčina", "name:lt": "Gatčina", "name:ru": "Гатчина", "official_status": "ru:город", "place": "city", "population": "94377", "population:date": "2021-01-01", "website": "http://gmrlo.ru", "wikidata": "Q7436", "wikipedia": "ru:Гатчина" }, "geometry": { "type": "Point", "coordinates": [ 30.1305083, 59.5706273 ] } },
{ "type": "Feature", "id": "node/27025689", "properties": { "@id": "node/27025689", "admin_level": "4", "alt_name:de": "Pleskau", "capital": "4", "int_name": "Pskov", "is_in:country": "Russia", "name": "Псков", "name:ar": "بسكوف", "name:be": "Пскоў", "name:ca": "Pskov", "name:da": "Pskov", "name:de": "Pleskau", "name:en": "Pskov", "name:es": "Pskov", "name:et": "Pihkva", "name:fi": "Pihkova", "name:fr": "Pskov", "name:full": "город Псков", "name:hr": "Pskov", "name:hsb": "Pskow", "name:hu": "Pszkov", "name:hy": "Պսկով", "name:ka": "ფსკოვი", "name:la": "Pscovia", "name:lt": "Pskovas", "name:lv": "Pleskava", "name:nl": "Pskov", "name:pl": "Psków", "name:ru": "Псков", "name:sk": "Pskov", "name:sr": "Псков", "name:sv": "Pskov", "name:uk": "Псков", "name:zh": "普斯科夫", "official_status": "ru:город", "old_name": "Пльсковъ", "old_name:de": "Pleskow", "place": "city", "population": "189315", "population:date": "2023-01-01", "wikidata": "Q2214", "wikipedia": "ru:Псков" }, "geometry": { "type": "Point", "coordinates": [ 28.3343465, 57.8173923 ] } },
{ "type": "Feature", "id": "node/27048976", "properties": { "@id": "node/27048976", "addr:city": "Калининград", "addr:country": "RU", "addr:region": "Калининградская область", "admin_level": "4", "capital": "4", "contact:website": "http://www.klgd.ru", "int_name": "Kaliningrad", "name": "Калининград", "name:ar": "كالينينغراد", "name:be": "Калінінград", "name:br": "Kaliningrad", "name:ca": "Kaliningrad", "name:cs": "Kaliningrad", "name:de": "Kaliningrad", "name:dsb": "Kaliningrad", "name:el": "Καλίνινγκραντ", "name:en": "Kaliningrad", "name:eo": "Kaliningrado", "name:es": "Kaliningrado", "name:et": "Kaliningrad", "name:eu": "Kaliningrad", "name:fa": "کالینینگراد", "name:fr": "Kaliningrad", "name:hr": "Kalinjingrad", "name:hsb": "Kaliningrad", "name:hu": "Kalinyingrád", "name:hy": "Կալինինգրադ", "name:ia": "Kaliningrad", "name:io": "Kaliningrad", "name:it": "Kaliningrad", "name:ja": "カリーニングラード", "name:ka": "კალინინგრადი", "name:ko": "칼리닌그라드", "name:ku": "Kaliningrad", "name:la": "Regiomontium", "name:lt": "Kaliningradas", "name:lv": "Kaļiņingrada", "name:nl": "Kaliningrad", "name:no": "Kaliningrad", "name:pl": "Królewiec", "name:pt": "Kaliningrado", "name:ro": "Kaliningrad", "name:ru": "Калининград", "name:ru:word_stress": "Калинингра́д", "name:sk": "Kaliningrad", "name:sl": "Kaliningrad", "name:sr": "Калињинград", "name:szl": "Kalińingrad", "name:uk": "Калінінград", "name:zh": "加里宁格勒", "name:zh-Hans": "加里宁格勒", "name:zh-Hant": "加里寧格勒", "official_name": "Калининград", "official_status": "ru:город", "old_name:1255-1946": "Königsberg", "old_name:cs:1255-1946": "Královec", "old_name:de:1255-1946": "Königsberg", "old_name:en:1255-1946": "Konigsberg", "old_name:eo:1255-1946": "Kenigsbergo", "old_name:fr:1255-1946": "Kœnigsberg", "old_name:it:1255-1946": "Conisberga", "old_name:ja:1255-1946": "ケーニヒスベルク", "old_name:la:1255-1946": "Regiomonte", "old_name:lt:1255-1946": "Karaliaučius", "old_name:nl:1255-1946": "Koningsbergen", "old_name:pl:1255-1946": "Królewiec", "old_name:pl:1946-2023": "Kaliningrad", "old_name:ru:1255-1946": "Кёнигсберг", "old_name:sk:1255-1946": "Kráľovec", "old_name:zh:1255-1946": "柯尼斯堡", "place": "city", "population": "489735", "population:date": "2023-01-01", "postal_code": "236000", "reg_name": "Калининград", "source:name": "Website for the slogan and exact name and name:de", "source:name:br": "ofis publik ar brezhoneg", "website": "https://www.klgd.ru/", "wikidata": "Q1829", "wikipedia": "ru:Калининград" }, "geometry": { "type": "Point", "coordinates": [ 20.5105838, 54.710128 ] } },
{ "type": "Feature", "id": "node/27072633", "properties": { "@id": "node/27072633", "addr:country": "RU", "addr:district": "городской округ Смоленск", "addr:region": "Смоленская область", "admin_level": "4", "capital": "4", "int_name": "Smolensk", "is_in:country": "Russia", "name": "Смоленск", "name:ar": "سمولينسك", "name:az": "Smolensk", "name:be": "Смаленск", "name:ca": "Smolensk", "name:cs": "Smolensk", "name:cu": "Смольньскъ", "name:da": "Smolensk", "name:de": "Smolensk", "name:dsb": "Smolensk", "name:el": "Σμολένσκ", "name:en": "Smolensk", "name:es": "Smolensk", "name:et": "Smolensk", "name:eu": "Smolensk", "name:fr": "Smolensk", "name:he": "סמולנסק", "name:hi": "स्मोलेन्स्क", "name:hr": "Smolensk", "name:hsb": "Smolensk", "name:hu": "Szmolenszk", "name:hy": "Սմոլենսկ", "name:is": "Smáleskja", "name:ja": "スモレンスク", "name:ka": "სმოლენსკი", "name:kn": "ಸ್ಮೋಲೇನ್ಸ್ಕ", "name:ko": "스몰렌스크", "name:la": "Smolenscum", "name:lt": "Smolenskas", "name:lv": "Smoļenska", "name:ml": "സ്മോലെൻസ്ക്", "name:mr": "स्मोलेन्स्क", "name:nb": "Smolensk", "name:pl": "Smoleńsk", "name:ro": "Smolensk", "name:ru": "Смоленск", "name:rue": "Смоленьск", "name:sk": "Smolensk", "name:sr": "Смоленск", "name:szl": "Smoleńsk", "name:th": "สโมเลนสค์", "name:tt": "Смоленск", "name:uk": "Смоленськ", "name:ur": "سمولنسک", "name:yi": "סמאלענסק", "name:yue": "斯摩棱斯克", "name:zh": "斯摩棱斯克", "official_name": "город Смоленск", "official_status": "ru:город", "old_name": "Smolenzki", "place": "city", "population": "325495", "population:date": "2020-01-01", "source:population": "https://sml.gks.ru/storage/mediabank/C0d70Mbt/smck20.pdf", "start_date:old_name": "before 1532", "wikidata": "Q2337", "wikipedia": "ru:Смоленск" }, "geometry": { "type": "Point", "coordinates": [ 32.0461261, 54.7814057 ] } },
{ "type": "Feature", "id": "node/27073428", "properties": { "@id": "node/27073428", "addr:country": "RU", "addr:district": "городской округ Брянск", "addr:region": "Брянская область", "admin_level": "4", "capital": "4", "contact:email": "zhaloby@bga32.ru", "contact:phone": "+7 4832 664044", "contact:website": "https://bga32.ru", "int_name": "Bryansk", "is_in:country": "Russia", "name": "Брянск", "name:af": "Brjansk", "name:ar": "بريانسك", "name:az": "Bryansk", "name:be": "Бранск", "name:be-tarask": "Бранск", "name:bg": "Брянск", "name:ca": "Briansk", "name:de": "Brjansk", "name:dsb": "Brjansk", "name:el": "Μπριάνσκ", "name:en": "Bryansk", "name:es": "Briansk", "name:et": "Brjansk", "name:eu": "Briansk", "name:fa": "بریانسک", "name:fi": "Brjansk", "name:fr": "Briansk", "name:he": "בריאנסק", "name:hr": "Brjansk", "name:hsb": "Brjansk", "name:hu": "Brjanszk", "name:hy": "Բրյանսկ", "name:ja": "ブリャンスク", "name:ka": "ბრიანსკი", "name:ko": "브랸스크", "name:la": "Branscum", "name:lt": "Brianskas", "name:lv": "Brjanska", "name:ml": "ബ്രയാൻസ്ക്", "name:pl": "Briańsk", "name:pnb": "بریانسک", "name:pt": "Briansk", "name:ro": "Breansk", "name:ru": "Брянск", "name:sh": "Brjansk", "name:sk": "Briansk", "name:sr": "Брјанск", "name:szl": "Brjańsk", "name:tr": "Bryansk", "name:uk": "Брянськ", "name:ur": "بریانسک", "name:vep": "Bränsk", "name:zh": "布良斯克", "official_name:uk": "Брянск", "official_status": "ru:город", "old_name": "Дебрянск", "place": "city", "population": "375669", "population:date": "2023-01-01", "start_date": "985", "wikidata": "Q2801", "wikipedia": "ru:Брянск" }, "geometry": { "type": "Point", "coordinates": [ 34.3668288, 53.2423778 ] } },
{ "type": "Feature", "id": "node/27090043", "properties": { "@id": "node/27090043", "addr:country": "RU", "addr:district": "городской округ Курск", "addr:region": "Курская область", "admin_level": "4", "capital": "4", "contact:email": "gorod@kurskadmin.ru", "contact:phone": "+7 4712 512572", "contact:vk": "https://vk.com/kurskpressa", "contact:website": "https://www.kurskadmin.ru", "int_name": "Kursk", "name": "Курск", "name:ar": "كورسك", "name:be": "Курск", "name:ca": "Kursk", "name:de": "Kursk", "name:el": "Κουρσκ", "name:en": "Kursk", "name:et": "Kursk", "name:eu": "Kursk", "name:fr": "Koursk", "name:he": "קורסק", "name:hr": "Kursk", "name:hsb": "Kursk", "name:hu": "Kurszk", "name:hy": "Կուրսկ", "name:ka": "კურსკი", "name:ko": "쿠르스크", "name:lt": "Kurskas", "name:ml": "കുർസ്ക്", "name:pl": "Kursk", "name:ro": "Kursk", "name:ru": "Курск", "name:sk": "Kursk", "name:sr": "Курск", "name:uk": "Курськ", "name:zh-Hans": "库尔斯克", "name:zh-Hant": "庫爾斯克", "official_name:uk": "Курск", "official_status": "ru:город", "place": "city", "population": "434703", "population:date": "2023-01-01", "start_date": "1032", "wikidata": "Q3159", "wikipedia": "ru:Курск" }, "geometry": { "type": "Point", "coordinates": [ 36.1923123, 51.7309249 ] } },
{ "type": "Feature", "id": "node/27096008", "properties": { "@id": "node/27096008", "addr:country": "RU", "addr:district": "городской округ Орёл", "addr:region": "Орловская область", "admin_level": "4", "alt_name": "Орел", "alt_name:hr": "Orel", "capital": "4", "int_name": "Orel", "is_in:country": "Russia", "name": "Орёл", "name:ar": "أوريول", "name:az": "Oryol", "name:be": "Арол", "name:ca": "Oriol", "name:de": "Orjol", "name:el": "Οριόλ", "name:en": "Oryol", "name:et": "Orjol", "name:eu": "Oriol", "name:fa": "اریول", "name:fr": "Orel", "name:he": "אוריול", "name:hr": "Orjol", "name:hsb": "Orjol", "name:hu": "Orjol", "name:hy": "Օրյոլ", "name:ja": "オリョール", "name:ka": "ორიოლი", "name:ko": "오룔", "name:lt": "Oriolas", "name:ml": "ഓറിയോൾ", "name:pl": "Orzeł", "name:ro": "Oriol", "name:ru": "Орёл", "name:sk": "Oriol", "name:sr": "Орел", "name:uk": "Орел", "name:zh-Hans": "奥廖尔", "name:zh-Hant": "奧廖爾", "official_status": "ru:город", "place": "city", "population": "298172", "population:date": "2022-01-01", "start_date": "1566", "wikidata": "Q3118", "wikipedia": "ru:Орёл (город)" }, "geometry": { "type": "Point", "coordinates": [ 36.0694937, 52.9687747 ] } },
{ "type": "Feature", "id": "node/27119039", "properties": { "@id": "node/27119039", "addr:country": "RU", "addr:district": "городской округ Белгород", "addr:region": "Белгородская область", "admin_level": "4", "alt_name:uk": "Бєлгород", "capital": "4", "contact:email": "belgorod@beladm.ru", "contact:ok": "https://ok.ru/beladm31", "contact:phone": "+7 4722 277206", "contact:telegram": "beladm31", "contact:vk": "https://vk.com/beladm31", "contact:website": "http://www.beladm.ru", "int_name": "Belgorod", "name": "Белгород", "name:ar": "بيلغورود", "name:az": "Belqorod", "name:ca": "Bélgorod", "name:cs": "Bělgorod", "name:de": "Belgorod", "name:el": "Μπέλγκοροντ", "name:en": "Belgorod", "name:es": "Bélgorod", "name:et": "Belgorod", "name:eu": "Belgorod", "name:fr": "Belgorod", "name:he": "בלגורוד", "name:hr": "Belgorod", "name:hsb": "Bjelgorod", "name:hu": "Belgorod", "name:hy": "Բելգորոդ", "name:ko": "벨고로드", "name:lt": "Belgorodas", "name:ml": "ബെൽഗൊറോഡ്", "name:os": "Белгород", "name:pl": "Biełgorod", "name:ro": "Belgorod", "name:ru": "Белгород", "name:ru:word_stress": "Бе́лгород", "name:sk": "Belgorod", "name:sr": "Белгород", "name:uk": "Білгород", "name:zh-Hans": "别尔哥罗德", "name:zh-Hant": "別爾哥羅德", "official_name:uk": "Бєлґород", "official_status": "ru:город", "place": "city", "population": "333931", "population:date": "2023-01-01", "start_date": "1596", "wikidata": "Q3323", "wikipedia": "ru:Белгород" }, "geometry": { "type": "Point", "coordinates": [ 36.5873394, 50.5955595 ] } },
{ "type": "Feature", "id": "node/27503945", "properties": { "@id": "node/27503945", "addr:country": "RU", "addr:region": "Самарская область", "admin_level": "4", "alt_name:ar": "سامارا", "alt_name:sk": "Kujbyšev", "alt_name:sl": "Kujbišev", "capital": "4", "int_name": "Samara", "name": "Самара", "name:ar": "سمارا", "name:az": "Samara", "name:ba": "Һамар", "name:be": "Самара", "name:ca": "Samara", "name:cs": "Samara", "name:cv": "Самар", "name:da": "Samara", "name:de": "Samara", "name:en": "Samara", "name:es": "Samara", "name:et": "Samara", "name:eu": "Samara", "name:fi": "Samara", "name:fr": "Samara", "name:hi": "समारा", "name:hr": "Samara", "name:hu": "Szamara", "name:hy": "Սամարա", "name:it": "Samara", "name:ja": "サマーラ", "name:ka": "სამარა", "name:kn": "ಸಮಾರ", "name:ko": "사마라", "name:lt": "Samara", "name:oc": "Samara", "name:pl": "Samara", "name:pt": "Samara", "name:ro": "Samara", "name:ru": "Самара", "name:sk": "Samara", "name:sl": "Samara", "name:tt": "Самар", "name:uk": "Самара", "name:uz": "Samara", "name:zh": "萨马拉", "name:zh-Hans": "萨马拉", "name:zh-Hant": "薩馬拉", "official_status": "ru:город", "old_name:1935-01-27--1991-01-25": "Куйбышев", "old_name:de:1935-01-27--1991-01-25": "Kuibyschew", "place": "city", "population": "1163645", "population:date": "2023-01-01", "source:name:oc": "Lo Congrès", "wikidata": "Q894", "wikipedia": "ru:Самара" }, "geometry": { "type": "Point", "coordinates": [ 50.113987, 53.198627 ] } },
{ "type": "Feature", "id": "node/27503946", "properties": { "@id": "node/27503946", "addr:country": "RU", "addr:district": "городской округ Омск", "addr:region": "Омская область", "capital": "4", "int_name": "Omsk", "name": "Омск", "name:ar": "أومسك", "name:az": "Omsk", "name:be": "Омск", "name:ca": "Omsk", "name:cs": "Omsk", "name:da": "Omsk", "name:de": "Omsk", "name:en": "Omsk", "name:es": "Omsk", "name:et": "Omsk", "name:eu": "Omsk", "name:fi": "Omsk", "name:fr": "Omsk", "name:hr": "Omsk", "name:ja": "オムスク", "name:ka": "ომსკი", "name:kk": "Омбы", "name:ko": "옴스크", "name:lt": "Omskas", "name:lv": "Omska", "name:oc": "Omsk", "name:pl": "Omsk", "name:pt": "Omsk", "name:ro": "Omsk", "name:ru": "Омск", "name:sk": "Omsk", "name:sl": "Omsk", "name:sr": "Омск", "name:sty": "Умбы", "name:uk": "Омськ", "name:uz": "Omsk", "name:zh": "鄂木斯克", "official_status": "ru:город", "place": "city", "population": "1110836", "population:date": "2023-01-01", "source:name:oc": "Lo Congrès", "source:population": "wikipedia", "start_date": "1716", "wikidata": "Q898", "wikipedia": "ru:Омск" }, "geometry": { "type": "Point", "coordinates": [ 73.371529, 54.991375 ] } },
{ "type": "Feature", "id": "node/27504067", "properties": { "@id": "node/27504067", "addr:country": "RU", "addr:region": "Татарстан", "admin_level": "4", "capital": "4", "contact:ok": "https://ok.ru/kzn", "contact:telegram": "kzn_official", "contact:vk": "https://vk.com/kzn", "contact:website": "https://kzn.ru", "contact:youtube": "https://www.youtube.com/channel/UC_nhCN0yJtq2DMdKhvNtxIQ", "int_name": "Kazan", "name": "Казань", "name:ar": "قازان", "name:az": "Kazan", "name:ba": "Ҡазан", "name:ca": "Kazan", "name:chm": "Озаҥ", "name:cs": "Kazaň", "name:cv": "Хусан", "name:da": "Kazan", "name:de": "Kasan", "name:en": "Kazan", "name:eo": "Kazano", "name:es": "Kazán", "name:et": "Kaasan", "name:eu": "Kazan", "name:fi": "Kazan", "name:fr": "Kazan", "name:he": "קאזאן", "name:hi": "काज़ान", "name:hr": "Kazanj", "name:hsb": "Kazań", "name:hu": "Kazany", "name:hy": "Կազան", "name:id": "Kazan", "name:it": "Kazan'", "name:ja": "カザン", "name:ka": "ყაზანი", "name:kk": "Қазан", "name:kn": "ಕಾಜಾ಼ನ್", "name:ko": "카잔", "name:ku": "Kazan", "name:kv": "Казан", "name:lt": "Kazanė", "name:lv": "Kazaņa", "name:mhr": "Озаҥ", "name:nl": "Kazan", "name:oc": "Kazan", "name:os": "Хъазан", "name:pl": "Kazań", "name:pt": "Cazã", "name:ro": "Kazan", "name:ru": "Казань", "name:ru:word_stress": "Каза́нь", "name:sk": "Kazaň", "name:sr": "Казањ", "name:tk": "Kazan", "name:tr": "Kazan", "name:tt": "Казан", "name:tt-lat": "Qazan", "name:udm": "Кузон", "name:uk": "Казань", "name:uz": "Qozon", "name:zh": "喀山", "official_status": "ru:город", "place": "city", "population": "1314685", "population:date": "2023-01-01", "start_date": "1005", "wikidata": "Q900", "wikipedia": "ru:Казань" }, "geometry": { "type": "Point", "coordinates": [ 49.1242266, 55.7823547 ] } },
{ "type": "Feature", "id": "node/27504156", "properties": { "@id": "node/27504156", "addr:country": "RU", "addr:district": "Челябинский городской округ", "addr:region": "Челябинская область", "admin_level": "4", "capital": "4", "contact:email": "mail@cheladmin.ru", "contact:facebook": "https://www.facebook.com/cheladmin74", "contact:instagram": "https://www.instagram.com/Cheladmin", "contact:ok": "https://ok.ru/group/55824529096902", "contact:phone": "+7 351 2633460", "contact:telegram": "chelmeria", "contact:vk": "https://vk.com/chel_adm", "contact:website": "https://cheladmin.ru", "ele": "238", "flag": "https://upload.wikimedia.org/wikipedia/commons/8/81/Flag_of_Chelyabinsk.svg", "int_name": "Chelyabinsk", "loc_name": "Танкоград;Столица Южного Урала;Челяба;Че;", "name": "Челябинск", "name:af": "Tsjeljabinsk", "name:ar": "تشيليابنسك", "name:avk": "Tcelyabinsk", "name:az": "Çelyabinsk", "name:azb": "چلیابینسک", "name:ba": "Силәбе", "name:be": "Чалябінск", "name:be-tarask": "Чалябінск", "name:bg": "Челябинск", "name:bn": "চেলিয়াবিন্‌স্ক", "name:br": "Tchelyabinsk", "name:bxr": "Челябинск", "name:ca": "Txeliàbinsk", "name:ce": "Челябинск", "name:ceb": "Chelyabinsk", "name:chm": "Челябе", "name:crh": "Çelâbinsk", "name:cs": "Čeljabinsk", "name:cu": "Чєлѣбиньскъ", "name:cv": "Челепи", "name:cy": "Chelyabinsk", "name:da": "Tjeljabinsk", "name:de": "Tscheljabinsk", "name:el": "Τσελιάμπινσκ", "name:en": "Chelyabinsk", "name:eo": "Ĉeljabinsk", "name:es": "Cheliábinsk", "name:et": "Tšeljabinsk", "name:eu": "Txeliabinsk", "name:fa": "چلیابینسک", "name:fi": "Tšeljabinsk", "name:fr": "Tcheliabinsk", "name:fy": "Tsjeljabinsk", "name:ga": "Chelyabinsk", "name:gl": "Cheliabinsk", "name:ha": "Chelyabinsk", "name:he": "צ'ליאבינסק", "name:hi": "चेल्याबिंस्क", "name:hr": "Čeljabinsk", "name:hsb": "Čeljabinsk", "name:hu": "Cseljabinszk", "name:hy": "Չելյաբինսկ", "name:id": "Chelyabinsk", "name:is": "Tsjeljabínsk", "name:it": "Čeljabinsk", "name:ja": "チェリャビンスク", "name:jv": "Chelyabinsk", "name:ka": "ჩელიაბინსკი", "name:kk": "Челябі", "name:kl": "Tjeljabinsk", "name:kn": "ಚೇಲ್ಯಾಬಿಂಸ್ಕ್", "name:ko": "첼랴빈스크", "name:koi": "Челяба", "name:kv": "Челябинск", "name:ky": "Челябинск", "name:la": "Celiabinsca", "name:lad": "Chelyabinsk", "name:lez": "Челябинск", "name:lmo": "Čeljabinsk", "name:lt": "Čeliabinskas", "name:lv": "Čeļabinska", "name:mdf": "Челяба", "name:mhr": "Челябинск", "name:min": "Chelyabinsk", "name:mk": "Чељабинск", "name:mn": "Челябинск", "name:mr": "चेलियाबिन्स्क", "name:nah": "Chelyabinsk", "name:nl": "Tsjeljabinsk", "name:nn": "Tsjeljabinsk", "name:no": "Tsjeljabinsk", "name:oc": "Cheliabinsk", "name:os": "Челябинск", "name:pcd": "Tchéliabïnsk", "name:pl": "Czelabińsk", "name:pnb": "چلیابنسک", "name:pt": "Cheliabinsk", "name:ro": "Celiabinsk", "name:ru": "Челябинск", "name:ru:word_stress": "Челя́бинск", "name:scn": "Chelyabinsk", "name:sco": "Chelyabinsk", "name:sh": "Čeljabinsk", "name:sk": "Čeľabinsk", "name:sl": "Čeljabinsk", "name:sr": "Чељабинск", "name:sv": "Tjeljabinsk", "name:sw": "Chelyabinsk", "name:szl": "Czelabińsk", "name:tg": "Челябинск", "name:th": "เชเลียบินสค์", "name:tl": "Chelyabinsk", "name:tr": "Çelyabinsk", "name:tt": "Чиләбе", "name:tum": "Chelyabinsk", "name:udm": "Челябинск", "name:uk": "Челябінськ", "name:ur": "چیلیابنسک", "name:uz": "Chelyabinsk", "name:vep": "Čeläbinsk", "name:vi": "Chelyabinsk", "name:vo": "Tsyelyabinsk", "name:war": "Chelyabinsk", "name:wo": "Chelyabinsk", "name:wuu": "车里雅宾斯克", "name:xmf": "ჩელიაბინსკი", "name:yi": "טשעליאבינסק", "name:zh-Hans": "车里雅宾斯克", "name:zh-Hant": "車里雅賓斯克", "note": "Do not remove capital and admin_level tags!", "official_status": "ru:город", "old_name": "Селябэ", "place": "city", "population": "1182517", "population:date": "2023", "postal_code": "454000", "short_name": "Че; Чел;", "source:name:oc": "Lo Congrès", "source:population": "Wikipedia", "sqkm": "501", "start_date": "1736-09-13", "wikidata": "Q906", "wikipedia": "ru:Челябинск" }, "geometry": { "type": "Point", "coordinates": [ 61.4025547, 55.1598408 ] } },
{ "type": "Feature", "id": "node/27504327", "properties": { "@id": "node/27504327", "addr:country": "RU", "addr:region": "Башкортостан", "admin_level": "4", "capital": "4", "contact:email": "cityadm@ufacity.info", "contact:facebook": "https://www.facebook.com/ufaadm", "contact:instagram": "https://www.instagram.com/ufacityadm", "contact:ok": "https://ok.ru/ufaadm", "contact:phone": "+7 347 2790579", "contact:twitter": "https://twitter.com/ufacity", "contact:vk": "https://vk.com/ufa", "contact:website": "http://уфа.рф", "contact:youtube": "https://www.youtube.com/user/gorodufa", "int_name": "Ufa", "name": "Уфа", "name:af": "Oefa", "name:ar": "أوفا", "name:az": "Ufa", "name:ba": "Өфө", "name:be": "Уфа", "name:ca": "Ufà", "name:cv": "Ӗпхӳ", "name:de": "Ufa", "name:en": "Ufa", "name:es": "Ufá", "name:et": "Ufa", "name:eu": "Ufa", "name:fi": "Ufa", "name:fr": "Oufa", "name:hi": "ऊफ़ा", "name:hr": "Ufa", "name:hu": "Ufa", "name:ja": "ウファ", "name:kk": "Үфі", "name:kn": "ಊಫಾ಼", "name:ko": "우파", "name:ku": "Ûfa", "name:lt": "Ufa", "name:lv": "Ufa", "name:nl": "Oefa", "name:oc": "Ufa", "name:pl": "Ufa", "name:pt": "Ufa", "name:ro": "Ufa", "name:ru": "Уфа", "name:ru:word_stress": "Уфа́", "name:sk": "Ufa", "name:tr": "Ufa", "name:tt": "Уфа", "name:uk": "Уфа", "name:uz": "Ufa", "name:zh": "乌法", "name:zh-Hans": "乌法", "name:zh-Hant": "烏法", "official_status": "ru:город", "place": "city", "population": "1135061", "population:date": "2022-01-01", "source:name:oc": "Lo Congrès", "start_date": "1574", "wikidata": "Q911", "wikipedia": "ru:Уфа" }, "geometry": { "type": "Point", "coordinates": [ 55.947499, 54.7261409 ] } },
{ "type": "Feature", "id": "node/27504363", "properties": { "@id": "node/27504363", "addr:country": "RU", "addr:region": "Волгоградская область", "admin_level": "4", "alt_name:vi": "Volgograd", "capital": "4", "contact:email": "opv@volgadmin.ru", "contact:ok": "https://ok.ru/volgadmin", "contact:phone": "+7 8442 301324", "contact:telegram": "volgadmin", "contact:vk": "https://vk.com/volgadmin", "contact:website": "http://www.volgadmin.ru", "int_name": "Volgograd", "is_in:country": "Russian Federation", "is_in:country_code": "RU", "name": "Волгоград", "name:ar": "فولغوغراد", "name:be": "Валгаград", "name:bg": "Волгоград", "name:ca": "Volgograd", "name:cs": "Volgograd", "name:de": "Wolgograd", "name:el": "Βόλγκογκραντ", "name:en": "Volgograd", "name:es": "Volgogrado", "name:et": "Volgograd", "name:fa": "ولگوگراد", "name:fi": "Volgograd", "name:fr": "Volgograd", "name:hi": "वोल्गोग्राद", "name:hr": "Volgograd", "name:hsb": "Wolgograd", "name:hu": "Volgográd", "name:hy": "Վոլգոգրադ", "name:it": "Volgograd", "name:ja": "ヴォルゴクラード", "name:ka": "ვოლგოგრადი", "name:kn": "ವೋಲ್ಗೊಗ್ರಾಡ್", "name:ko": "볼고그라드", "name:lt": "Volgogradas", "name:ml": "വോൾഗോഗ്രാഡ്", "name:oc": "Volgograd", "name:pl": "Wołgograd", "name:pt": "Volgogrado", "name:ro": "Volgograd", "name:ru": "Волгоград", "name:sk": "Volgograd", "name:sr": "Волгоград", "name:sr-Latn": "Volgograd", "name:ta": "வோல்கோகிராட்", "name:tr": "Volgograd", "name:uk": "Волгоград", "name:vi": "Vôn-ga-grát", "name:zh": "伏尔加格勒", "name:zh-Hans": "伏尔加格勒", "name:zh-Hant": "伏爾加格勒", "official_status": "ru:город", "old_name:1589-1925": "Царицын", "old_name:1925-1961": "Сталинград", "old_name:ca:1925-1961": "Stalingrad", "old_name:cs:1589-1925": "Caricyn", "old_name:de:1589-1925": "Zarizyn", "old_name:de:1925-1961": "Stalingrad", "old_name:en:1589-1925": "Tsaritsyn", "old_name:en:1925-1961": "Stalingrad", "old_name:es:1925-1961": "Stalingrado", "old_name:fr:1589-1925": "Tsaritsyne", "old_name:fr:1925-1961": "Stalingrad", "old_name:hr:1589-1925": "Caricin", "old_name:hr:1925-1961": "Staljingrad", "old_name:it:1589-1925": "Caricyn", "old_name:it:1925-1961": "Stalingrado", "old_name:ko:1589-1925": "차리친", "old_name:ko:1925-1961": "스탈린그라드", "old_name:sr-Latn:1925-1961": "Staljingrad", "old_name:sr:1925-1961": "Стаљинград", "old_name:vi:1589-1925": "Xa-rít-xưn", "old_name:vi:1925-1961": "Xta-lin-grát", "place": "city", "population": "1025662", "population:date": "2023-01-01", "source:name:oc": "Lo Congrès", "start_date": "1589", "wikidata": "Q914", "wikipedia": "ru:Волгоград" }, "geometry": { "type": "Point", "coordinates": [ 44.5153353, 48.7081906 ] } },
{ "type": "Feature", "id": "node/27504531", "properties": { "@id": "node/27504531", "addr:country": "RU", "addr:region": "Пермский край", "admin_level": "4", "capital": "4", "contact:email": "main@gorodperm.ru", "contact:phone": "+7 342 2173317", "contact:website": "https://gorodperm.ru", "ele": "149", "int_name": "Perm", "name": "Пермь", "name:ar": "بيرم", "name:az": "Perm", "name:ca": "Perm", "name:cs": "Perm", "name:de": "Perm", "name:en": "Perm", "name:eo": "Permjo", "name:es": "Perm", "name:et": "Perm", "name:eu": "Perm", "name:fi": "Perm", "name:fr": "Perm", "name:hi": "पॆर्म्", "name:hr": "Perm", "name:hu": "Perm", "name:ja": "ペルミ", "name:kn": "ಪೆರ್ಮ್", "name:ko": "페름", "name:ku": "Perm", "name:lt": "Permė", "name:lv": "Perma", "name:oc": "Perm", "name:pl": "Perm", "name:pt": "Perm", "name:ro": "Perm", "name:ru": "Пермь", "name:sk": "Perm", "name:tt": "Пермь крае", "name:uk": "Перм", "name:uz": "Perm", "name:zh-Hans": "彼尔姆", "name:zh-Hant": "彼爾姆", "official_status": "ru:город", "old_name": "Молотов; Егошихинский завод", "place": "city", "population": "1034002", "population:date": "2022-01-01", "source:name:oc": "Lo Congrès", "start_date": "1723", "wikidata": "Q915", "wikipedia": "ru:Пермь" }, "geometry": { "type": "Point", "coordinates": [ 56.246723, 58.014965 ] } },
{ "type": "Feature", "id": "node/27504590", "properties": { "@id": "node/27504590", "addr:postcode": "410000", "addr:region": "Саратовская область", "admin_level": "4", "capital": "4", "ele": "50", "int_name": "Saratov", "name": "Саратов", "name:ar": "ساراتوف", "name:az": "Saratov", "name:ba": "Һарытау", "name:be": "Саратаў", "name:ca": "Saràtov", "name:cv": "Сарӑ Ту", "name:da": "Saratov", "name:de": "Saratow", "name:en": "Saratov", "name:es": "Sarátov", "name:et": "Saratov", "name:eu": "Saratov", "name:fi": "Saratov", "name:fr": "Saratov", "name:he": "סראטוב", "name:hr": "Saratov", "name:hsb": "Saratow", "name:hu": "Szaratov", "name:hy": "Սարատով", "name:ja": "サラトフ", "name:ka": "სარატოვი", "name:kk": "Сарытау", "name:ko": "사라토프", "name:lt": "Saratovas", "name:pl": "Saratów", "name:ro": "Saratov", "name:ru": "Саратов", "name:sk": "Saratov", "name:tt": "Сарытау", "name:uk": "Саратов", "name:uz": "Saratov", "name:zh-Hans": "萨拉托夫", "name:zh-Hant": "薩拉托夫", "official_name": "город Саратов", "official_status": "ru:город", "place": "city", "population": "818383", "population:date": "2022-01-01", "wikidata": "Q5332", "wikipedia": "ru:Саратов" }, "geometry": { "type": "Point", "coordinates": [ 46.034683, 51.530018 ] } },
{ "type": "Feature", "id": "node/27505044", "properties": { "@id": "node/27505044", "addr:country": "RU", "addr:region": "Воронежская область", "admin_level": "4", "alt_name:ar": "فورونيج", "capital": "4", "contact:website": "https://voronezh-city.ru", "int_name": "Voronezh", "is_in:country": "Russian Federation", "is_in:country_code": "RU", "name": "Воронеж", "name:ar": "فارونيش", "name:az": "Voronej", "name:be": "Варонеж", "name:ca": "Vorónej", "name:ce": "Воронеж", "name:crh": "Voronej", "name:cs": "Voroněž", "name:cu": "Воронєжь", "name:de": "Woronesch", "name:el": "Βορόνεζ", "name:en": "Voronezh", "name:eo": "Voroneĵ", "name:es": "Vorónezh", "name:et": "Voronež", "name:eu": "Voronezh", "name:fi": "Voronež", "name:fr": "Voronej", "name:he": "וורונז'", "name:hr": "Voronjež", "name:hsb": "Woronjež", "name:hu": "Voronyezs", "name:hy": "Վորոնեժ", "name:id": "Voronezh", "name:it": "Voronež", "name:ka": "ვორონეჟი", "name:ko": "보로네시", "name:ky": "Воронеж", "name:lt": "Voronežas", "name:lv": "Voroņeža", "name:ml": "വൊറോനെജ്", "name:mn": "Воронеж", "name:os": "Воронеж", "name:pl": "Woroneż", "name:pt": "Voronej", "name:ro": "Voronej", "name:ru": "Воронеж", "name:ru:word_stress": "Воро́неж", "name:sk": "Voronež", "name:sl": "Voronež", "name:sr": "Вороњеж", "name:sv": "Voronezj", "name:tr": "Voronej", "name:tt": "Воронеж", "name:uk": "Воронеж", "name:uz": "Voronej", "name:xmf": "ვორონეჟი", "name:zh-Hans": "沃罗涅日", "name:zh-Hant": "沃羅涅日", "official_status": "ru:город", "place": "city", "population": "1051995", "population:date": "2023-01-01", "start_date": "1586", "website": "https://voronezh-city.ru/", "wikidata": "Q3426", "wikipedia": "ru:Воронеж" }, "geometry": { "type": "Point", "coordinates": [ 39.2005858, 51.6605982 ] } },
{ "type": "Feature", "id": "node/27505129", "properties": { "@id": "node/27505129", "addr:country": "RU", "addr:postcode": "350000", "addr:region": "Краснодарский край", "admin_level": "4", "capital": "4", "contact:facebook": "https://www.facebook.com/krdcity", "contact:instagram": "https://www.instagram.com/krdru/", "contact:ok": "https://ok.ru/krdru", "contact:rutube": "https://rutube.ru/channel/24771589/", "contact:telegram": "krdru", "contact:twitter": "https://twitter.com/krdru", "contact:vk": "https://vk.com/krdru", "contact:website": "https://krd.ru", "contact:youtube": "https://www.youtube.com/user/krasnodaradm", "image": "https://upload.wikimedia.org/wikipedia/commons/4/4d/Krasnodar_teatr.jpg", "int_name": "Krasnodar", "name": "Краснодар", "name:ar": "كراسنودار", "name:az": "Krasnodar", "name:ca": "Krasnodar", "name:de": "Krasnodar", "name:el": "Κρασνοντάρ", "name:en": "Krasnodar", "name:es": "Krasnodar", "name:et": "Krasnodar", "name:eu": "Krasnodar", "name:fa": "كراسنودار", "name:fi": "Krasnodar", "name:fr": "Krasnodar", "name:gag": "Krasnodar", "name:he": "קרסנודאר", "name:hr": "Krasnodar", "name:hsb": "Krasnodar", "name:hu": "Krasznodar", "name:hy": "Կրասնոդար", "name:it": "Krasnodar", "name:ja": "クラスノダール", "name:ka": "კრასნოდარი", "name:ko": "크라스노다르", "name:la": "Crasnodaria", "name:lt": "Krasnodaras", "name:lv": "Krasnodara", "name:ml": "ക്രാസ്നോദർ", "name:os": "Краснодар", "name:pl": "Krasnodar", "name:pnb": "کراسنوڈار", "name:pt": "Krasnodar", "name:ro": "Krasnodar", "name:ru": "Краснодар", "name:ru:word_stress": "Краснода́р", "name:sk": "Krasnodar", "name:sl": "Krasnodar", "name:sr": "Краснодар", "name:tr": "Krasnodar", "name:uk": "Краснодар", "name:xmf": "კრასნოდარი", "name:zh": "克拉斯诺达尔", "name:zh-Hans": "克拉斯诺达尔", "name:zh-Hant": "克拉斯諾達爾", "official_status": "ru:город", "okato:user": "03401", "old_name": "Екатеринодар", "place": "city", "population": "1121291", "population:date": "2023-01-01", "short_name": "КРД", "start_date": "1793", "wikidata": "Q3646", "wikipedia": "ru:Краснодар" }, "geometry": { "type": "Point", "coordinates": [ 38.9772396, 45.0351532 ] } },
{ "type": "Feature", "id": "node/27505266", "properties": { "@id": "node/27505266", "addr:country": "RU", "addr:region": "Ярославская область", "admin_level": "4", "capital": "4", "heritage": "1", "heritage:operator": "whc", "int_name": "Yaroslavl", "loc_name": "Ярик", "name": "Ярославль", "name:ar": "ياروسلافل", "name:ca": "Iaroslavl", "name:cs": "Jaroslavl", "name:de": "Jaroslawl", "name:en": "Yaroslavl", "name:et": "Jaroslavl", "name:eu": "Jaroslavl", "name:fi": "Jaroslavl", "name:fr": "Iaroslavl", "name:hr": "Jaroslavlj", "name:hu": "Jaroszlavl", "name:ko": "야로슬라블", "name:lt": "Jaroslavlis", "name:pl": "Jarosław", "name:ro": "Iaroslavl", "name:ru": "Ярославль", "name:ru:word_stress": "Яросла́вль", "name:sk": "Jaroslavľ", "name:sr": "Јарослављ", "name:tt": "Ярыслау", "name:uk": "Ярославль", "name:zh-Hans": "雅罗斯拉夫尔", "name:zh-Hant": "雅羅斯拉夫爾", "official_status": "ru:город", "place": "city", "population": "570824", "population:date": "2023-01-01", "wikidata": "Q2423", "wikipedia": "ru:Ярославль" }, "geometry": { "type": "Point", "coordinates": [ 39.8933705, 57.6263877 ] } },
{ "type": "Feature", "id": "node/27505285", "properties": { "@id": "node/27505285", "addr:country": "RU", "addr:region": "Алтайский край", "admin_level": "4", "capital": "4", "int_name": "Barnaul", "name": "Барнаул", "name:ar": "بارناول", "name:az": "Barnaul", "name:ba": "Барнауыл", "name:ca": "Barnaül", "name:de": "Barnaul", "name:en": "Barnaul", "name:es": "Barnaúl", "name:et": "Barnaul", "name:eu": "Barnaul", "name:fi": "Barnaul", "name:fr": "Barnaoul", "name:hr": "Barnaul", "name:hu": "Barnaul", "name:ja": "バルナウル", "name:kk": "Барнауыл", "name:ko": "바르나울", "name:lt": "Barnaulas", "name:pl": "Barnauł", "name:ro": "Barnaul", "name:ru": "Барнаул", "name:ru:word_stress": "Барнау́л", "name:sk": "Barnaul", "name:sl": "Barnaul", "name:tt": "Барнавыл", "name:uk": "Барнаул", "name:ur": "بارناول", "name:uz": "Barnaul", "name:zh": "巴爾瑙爾", "name:zh-Hant": "巴爾瑙爾", "official_status": "ru:город", "place": "city", "population": "623057", "population:date": "2023-01-01", "source:population": "http://www.gks.ru/free_doc/doc_2019/bul_dr/mun_obr2019.rar", "wikidata": "Q6014", "wikipedia": "ru:Барнаул" }, "geometry": { "type": "Point", "coordinates": [ 83.7788448, 53.3475493 ] } },
{ "type": "Feature", "id": "node/27505335", "properties": { "@id": "node/27505335", "addr:country": "RU", "addr:region": "Иркутская область", "admin_level": "4", "capital": "4", "int_name": "Irkutsk", "is_in:country": "Russia", "name": "Иркутск", "name:ar": "إركوتسك", "name:be": "Іркуцк", "name:ca": "Irkutsk", "name:cs": "Irkutsk", "name:de": "Irkutsk", "name:en": "Irkutsk", "name:et": "Irkutsk", "name:eu": "Irkutsk", "name:fi": "Irkutsk", "name:fr": "Irkoutsk", "name:hr": "Irkutsk", "name:hu": "Irkutszk", "name:ja": "イルクーツク", "name:ko": "이르쿠츠크", "name:kz": "Үркіт", "name:lt": "Irkutskas", "name:mn": "Эрх??", "name:nl": "Irkoetsk", "name:pl": "Irkuck", "name:ro": "Irkutsk", "name:ru": "Иркутск", "name:sk": "Irkutsk", "name:sl": "Irkutsk", "name:tt": "Өркет", "name:uk": "Іркутськ", "name:zh-Hans": "伊尔库茨克", "name:zh-Hant": "伊爾庫茨克", "official_status": "ru:город", "place": "city", "population": "611215", "population:date": "2023-01-01", "start_date": "1661", "wikidata": "Q6576", "wikipedia": "tt:Иркутск" }, "geometry": { "type": "Point", "coordinates": [ 104.279829, 52.2891225 ] } },
{ "type": "Feature", "id": "node/27505509", "properties": { "@id": "node/27505509", "addr:country": "RU", "addr:district": "городской округ Оренбург", "addr:region": "Оренбургская область", "admin_level": "4", "capital": "4", "contact:website": "https://orenburg.ru", "ele": "150", "int_name": "Orenburg", "name": "Оренбург", "name:ar": "أورينبورغ", "name:ba": "Ырымбур", "name:ca": "Orenburg", "name:cs": "Orenburg", "name:cv": "Ӗремпур", "name:de": "Orenburg", "name:en": "Orenburg", "name:es": "Oremburgo", "name:et": "Orenburg", "name:eu": "Orenburg", "name:fi": "Orenburg", "name:fr": "Orenbourg", "name:hr": "Orenburg", "name:hu": "Orenburg", "name:ja": "オレンブルク", "name:ko": "오렌부르크", "name:lt": "Orenburgas", "name:pl": "Orenburg", "name:ro": "Orenburg", "name:ru": "Оренбург", "name:ru:word_stress": "Оренбу́рг", "name:sk": "Orenburg", "name:tt": "Ырынбур", "name:uk": "Оренбург", "name:zh": "奧倫堡", "name:zh-Hant": "奧倫堡", "official_status": "ru:город", "old_name": "Чкалов", "place": "city", "population": "572308", "population:date": "2022-01-01", "postal_code": "460000", "start_date": "1743", "wikidata": "Q5337", "wikipedia": "ru:Оренбург" }, "geometry": { "type": "Point", "coordinates": [ 55.0978517, 51.7671248 ] } },
{ "type": "Feature", "id": "node/27505582", "properties": { "@id": "node/27505582", "addr:country": "RU", "addr:region": "Рязанская область", "admin_level": "4", "capital": "4", "contact:website": "https://admrzn.ru", "int_name": "Ryazan", "name": "Рязань", "name:af": "Rjazan", "name:ar": "ريازان", "name:az": "Ryazan", "name:ba": "Рязань", "name:be": "Разань", "name:bg": "Рязан", "name:br": "Ryazan", "name:ca": "Riazan", "name:chm": "Эрзäн", "name:cs": "Rjazaň", "name:cu": "Рѣꙁан҄ь", "name:cv": "Кисан", "name:cy": "Ryazan", "name:da": "Rjasan", "name:de": "Rjasan", "name:el": "Ριαζάν", "name:en": "Ryazan", "name:eo": "Rjazan", "name:es": "Riazán", "name:et": "Rjazan", "name:eu": "Riazan", "name:fa": "ریازان", "name:fi": "Rjazan", "name:fr": "Riazan", "name:ga": "Ryazan", "name:he": "ריאזאן", "name:hr": "Rjazanj", "name:hsb": "Rjazań", "name:hu": "Rjazany", "name:hy": "Ռյազան", "name:id": "Ryazan", "name:it": "Rjazan'", "name:ja": "リャザン", "name:ka": "რიაზანი", "name:kbd": "Разан", "name:ko": "랴잔", "name:la": "Resania", "name:lt": "Riazanė", "name:lv": "Rjazaņa", "name:mr": "रायझन", "name:nl": "Rjazan", "name:nn": "Rjazan", "name:no": "Rjazan", "name:oc": "Riazan", "name:pl": "Riazań", "name:pt": "Riazan", "name:ro": "Riazan", "name:ru": "Рязань", "name:ru:word_stress": "Ряза́нь", "name:sk": "Riazaň", "name:sr": "Рјазањ", "name:sv": "Rjazan", "name:tg": "Рязан", "name:tl": "Ryazan", "name:tr": "Ryazan", "name:tt": "Рәзән", "name:uk": "Рязань", "name:ur": "ریازان", "name:vi": "Ryazan", "name:zh": "梁赞", "official_status": "ru:город", "old_name": "Переяславль-Рязанский", "place": "city", "population": "523203", "population:date": "2023-01-01", "wikidata": "Q2746", "wikipedia": "ru:Рязань" }, "geometry": { "type": "Point", "coordinates": [ 39.7425039, 54.6295687 ] } },
{ "type": "Feature", "id": "node/27505663", "properties": { "@id": "node/27505663", "addr:country": "RU", "addr:postcode": "4400xx", "addr:region": "Пензенская область", "admin_level": "4", "alt_name:ar": "بانزا", "capital": "4", "int_name": "Penza", "name": "Пенза", "name:ar": "بينزا", "name:be": "Пенза", "name:ca": "Penza", "name:cv": "Пӗнҫе", "name:de": "Pensa", "name:en": "Penza", "name:et": "Penza", "name:eu": "Penza", "name:fi": "Penza", "name:fr": "Penza", "name:hr": "Penza", "name:hu": "Penza", "name:ja": "ペンザ", "name:ko": "펜자", "name:lt": "Penza", "name:pl": "Penza", "name:ro": "Penza", "name:ru": "Пенза", "name:ru:word_stress": "Пе́нза", "name:sk": "Penza", "name:uk": "Пенза", "name:zh": "奔薩", "name:zh-Hant": "奔薩", "official_status": "ru:город", "place": "city", "population": "492376", "population:date": "2023-01-01", "website": "http://www.penza-gorod.ru/", "wikidata": "Q5540", "wikipedia": "ru:Пенза" }, "geometry": { "type": "Point", "coordinates": [ 45.0190437, 53.1953477 ] } },
{ "type": "Feature", "id": "node/27505666", "properties": { "@id": "node/27505666", "addr:country": "RU", "addr:district": "городской округ Тюмень", "addr:region": "Тюменская область", "capital": "4", "contact:email": "adm@tyumen-city.ru", "contact:phone": "+7 345 2451520", "contact:website": "https://www.tyumen-city.ru", "int_name": "Tyumen", "name": "Тюмень", "name:ar": "تيومين", "name:ba": "Төмән", "name:ca": "Tiumén", "name:cv": "Тӗмен", "name:de": "Tjumen", "name:en": "Tyumen", "name:eo": "Tjumeno", "name:es": "Tiumén", "name:et": "Tjumen", "name:eu": "Tiumen", "name:fi": "Tjumen", "name:fr": "Tioumen", "name:hr": "Tjumenj", "name:hu": "Tyumeny", "name:it": "Tjumen'", "name:ja": "チュメニ", "name:ko": "튜멘", "name:lt": "Tiumenė", "name:lv": "Tjumeņa", "name:pl": "Tiumeń", "name:ro": "Tiumen", "name:ru": "Тюмень", "name:ru:word_stress": "Тюме́нь", "name:sk": "Ťumeň", "name:sl": "Tyumen", "name:tt": "Төмән", "name:uk": "Тюмень", "name:zh": "秋明", "name:zh-Hans": "秋明", "name:zh-Hant": "秋明", "official_status": "ru:город", "place": "city", "population": "828575", "population:date": "2022-01-01", "start_date": "1586", "wikidata": "Q5815", "wikipedia": "ru:Тюмень" }, "geometry": { "type": "Point", "coordinates": [ 65.542274, 57.153534 ] } },
{ "type": "Feature", "id": "node/34389350", "properties": { "@id": "node/34389350", "addr:country": "RU", "addr:region": "Тульская область", "admin_level": "4", "capital": "4", "contact:website": "https://www.tula.ru", "int_name": "Tula", "is_in:country": "Russian Federation", "is_in:country_code": "RU", "name": "Тула", "name:ar": "تولا", "name:be": "Тула", "name:ca": "Tula", "name:de": "Tula", "name:en": "Tula", "name:et": "Tula", "name:eu": "Tula", "name:fr": "Toula", "name:hr": "Tula", "name:hu": "Tula", "name:ko": "툴라", "name:lt": "Tula", "name:ml": "തുല", "name:pl": "Tuła", "name:ro": "Tula", "name:ru": "Тула", "name:ru:word_stress": "Ту́ла", "name:sk": "Tula", "name:sr": "Тула", "name:uk": "Тула", "name:zh": "圖拉", "name:zh-Hant": "圖拉", "official_status": "ru:город", "place": "city", "population": "466609", "population:date": "2023-09-04", "start_date": "1146", "wikidata": "Q2770", "wikimedia_commons": "Category:Tula", "wikipedia": "ru:Тула" }, "geometry": { "type": "Point", "coordinates": [ 37.61754, 54.1930321 ] } },
{ "type": "Feature", "id": "node/36714827", "properties": { "@id": "node/36714827", "addr:country": "RU", "addr:district": "городской округ Ставрополь", "addr:postcode": "355000", "addr:region": "Ставропольский край", "admin_level": "4", "capital": "4", "contact:email": "ipriem@stavadm.ru", "contact:phone": "+7 8652 264176", "contact:website": "http://ставрополь.рф", "int_name": "Stavropol", "is_in:country": "Russia", "name": "Ставрополь", "name:ar": "ستافروبول", "name:az": "Stavropol", "name:ca": "Stàvropol", "name:de": "Stawropol", "name:el": "Σταυρούπολη", "name:en": "Stavropol", "name:et": "Stavropol", "name:eu": "Stavropol", "name:fr": "Stavropol", "name:hr": "Stavropolj", "name:hsb": "Stawropol", "name:hu": "Stravlopol", "name:hy": "Ստավրոպոլ", "name:ka": "სტავროპოლი", "name:kbd": "Шъэт-Къалэ", "name:ko": "스타브로폴", "name:lt": "Stavropolis", "name:ml": "സ്റ്റാവ്രോപോൾ", "name:nl": "Stavropol", "name:os": "Стъарапол", "name:pl": "Stawropol", "name:ro": "Stavropol", "name:ru": "Ставрополь", "name:sk": "Stavropoľ", "name:sl": "Stavropol", "name:sr": "Ставропољ", "name:tr": "Stavropol", "name:uk": "Ставрополь", "name:zh": "斯塔夫罗波尔", "name:zh-Hans": "斯塔夫罗波尔", "name:zh-Hant": "斯塔夫羅波爾", "official_status": "ru:город", "old_name": "Ставрополь-Кавказский; Ворошиловск;", "place": "city", "population": "550147", "population:date": "2023-01-01", "start_date": "1777", "wikidata": "Q5206", "wikipedia": "ru:Ставрополь" }, "geometry": { "type": "Point", "coordinates": [ 41.9690934, 45.0433245 ] } },
{ "type": "Feature", "id": "node/76611479", "properties": { "@id": "node/76611479", "addr:city": "Липецк", "addr:country": "RU", "addr:region": "Липецкая область", "admin_level": "4", "capital": "4", "contact:website": "https://lipetskcity.ru", "int_name": "Lipetsk", "name": "Липецк", "name:ar": "ليبيتسك", "name:az": "Lipetsk", "name:be": "Ліпецк", "name:ca": "Lípetsk", "name:de": "Lipezk", "name:el": "Λίπετσκ", "name:en": "Lipetsk", "name:et": "Lipetsk", "name:eu": "Lipetsk", "name:fa": "لیپتسک", "name:fr": "Lipetsk", "name:he": "ליפצק", "name:hr": "Lipeck", "name:hsb": "Lipjeck", "name:hu": "Lipeck", "name:hy": "Լիպեցկ", "name:ja": "リペツク", "name:ka": "ლიპეცკი", "name:ko": "리페츠크", "name:lt": "Lipeckas", "name:lv": "Ļipecka", "name:nl": "Lipetsk", "name:pl": "Lipieck", "name:ro": "Lipețk", "name:ru": "Липецк", "name:sk": "Lipeck", "name:sr": "Липецк", "name:uk": "Липецьк", "name:zh": "利佩茨克", "official_status": "ru:город", "place": "city", "population": "490428", "population:date": "2023-01-01", "start_date": "1703", "wikidata": "Q3490", "wikipedia": "ru:Липецк" }, "geometry": { "type": "Point", "coordinates": [ 39.5936899, 52.6041877 ] } },
{ "type": "Feature", "id": "node/93711720", "properties": { "@id": "node/93711720", "alt_name:kbd": "НалщӀэч", "capital": "4", "int_name": "Nalchik", "name": "Нальчик", "name:af": "Naltsjik", "name:ar": "نالتشيك", "name:ast": "Nálchik", "name:az": "Nalçik", "name:be": "Нальчык", "name:bg": "Налчик", "name:br": "Naltchik", "name:ca": "Nàltxik", "name:ce": "Нальчик", "name:ceb": "Nal'chik", "name:cs": "Nalčik", "name:cy": "Nalchik", "name:da": "Naltjik", "name:de": "Naltschik", "name:el": "Νάλτσικ", "name:en": "Nalchik", "name:eo": "Nalĉik", "name:es": "Nálchik", "name:et": "Naltšik", "name:eu": "Naltxik", "name:fa": "نالچیک", "name:fi": "Naltšik", "name:fr": "Naltchik", "name:he": "נלצ'יק", "name:hr": "Naljčik", "name:hsb": "Nalčik", "name:hu": "Nalcsik", "name:hy": "Նալչիկ", "name:id": "Nalchik", "name:it": "Nal'čik", "name:ja": "ナリチク", "name:ka": "ნალჩიკი", "name:kbd": "Налшык", "name:kk": "Нальчик", "name:kk-Latn": "Nalchik", "name:ko": "날치크", "name:krc": "Нальчик", "name:ky": "Нальчик", "name:lt": "Nalčikas", "name:lv": "Naļčika", "name:mk": "Наљчик", "name:ml": "നാൽചിക്ക്", "name:mn": "Нальчик", "name:ms": "Nalchik", "name:myv": "Нальчик ош", "name:nl": "Naltsjik", "name:nn": "Naltsjik", "name:no": "Naltsjik", "name:os": "Налцыкк", "name:pl": "Nalczyk", "name:pt": "Naltchik", "name:ro": "Nalcik", "name:ru": "Нальчик", "name:sco": "Nalchik", "name:sk": "Naľčik", "name:sr": "Наљчик", "name:sv": "Naltjik", "name:sw": "Nalchik", "name:szl": "Nalczik", "name:tl": "Nalchik", "name:tr": "Nalçik", "name:tt": "Налчык", "name:uk": "Нальчик", "name:ur": "نالچک", "name:uz": "Nalchik", "name:vi": "Nalchik", "name:war": "Nalchik", "name:wuu": "纳尔奇克", "name:xal": "Нальчик балһсн", "name:xmf": "ნალჩიკი", "name:yue": "納爾奇克", "name:zh": "纳尔奇克", "name:zh-Hans": "纳尔奇克", "name:zh-Hant": "納爾奇克", "official_status": "ru:город", "place": "city", "population": "239610", "population:date": "2022-01-01", "start_date": "1724", "wikidata": "Q5265", "wikipedia": "ru:Нальчик" }, "geometry": { "type": "Point", "coordinates": [ 43.5966578, 43.4769604 ] } },
{ "type": "Feature", "id": "node/113548786", "properties": { "@id": "node/113548786", "addr:country": "RU", "addr:district": "городской округ Киров", "addr:region": "Кировская область", "admin_level": "4", "alt_name": "Вятка", "capital": "4", "contact:website": "https://киров.рф", "name": "Киров", "name:ca": "Kírov", "name:cv": "Ветке", "name:de": "Kirow", "name:en": "Kirov", "name:es": "Kírov", "name:et": "Kirov", "name:eu": "Kirov", "name:fr": "Kirov", "name:hr": "Kirov", "name:ja": "キーロフ州", "name:ko": "키로프", "name:lt": "Kirovas", "name:pl": "Kirow", "name:ro": "Kirov", "name:ru": "Киров", "name:ru:word_stress": "Ки́ров", "name:sk": "Kirov", "name:uk": "Кіров", "name:zh": "基洛夫", "official_status": "ru:город", "old_name": "Вятка", "old_name:chm": "Ильна-Ола", "old_name:en": "Vjatka", "old_name:tt": "Колын", "old_name:udm": "Кылно", "place": "city", "population": "518 363", "population:date": "2023-01-01", "start_date": "1374", "wikidata": "Q5384", "wikipedia": "ru:Киров (Кировская область)" }, "geometry": { "type": "Point", "coordinates": [ 49.6666241, 58.6035661 ] } },
{ "type": "Feature", "id": "node/148901123", "properties": { "@id": "node/148901123", "addr:country": "RU", "addr:postcode": "156000", "addr:region": "Костромская область", "admin_level": "6", "capital": "4", "contact:website": "https://gradkostroma.ru", "int_name": "Kostroma", "name": "Кострома", "name:ca": "Kostromà", "name:de": "Kostroma", "name:en": "Kostroma", "name:eo": "Kostroma", "name:et": "Kostroma", "name:eu": "Kostroma", "name:fi": "Kostroma", "name:fr": "Kostroma", "name:hr": "Kostroma", "name:hu": "Kosztroma", "name:ko": "코스트로마", "name:lt": "Kostroma", "name:pl": "Kostroma", "name:ru": "Кострома", "name:ru:word_stress": "Кострома́", "name:sk": "Kostroma", "name:sr": "Кострома", "name:uk": "Кострома", "name:zh-Hans": "科斯特罗马", "name:zh-Hant": "科斯特羅馬", "official_status": "ru:город", "place": "city", "population": "265959", "population:date": "2023-01-01", "start_date": "1152", "wikidata": "Q2592", "wikipedia": "ru:Кострома" }, "geometry": { "type": "Point", "coordinates": [ 40.9269141, 57.7679158 ] } },
{ "type": "Feature", "id": "node/148901125", "properties": { "@id": "node/148901125", "addr:postcode": "153000", "addr:region": "Ивановская область", "admin_level": "4", "capital": "4", "contact:website": "https://ivgoradm.ru", "int_name": "Ivanovo", "name": "Иваново", "name:be": "Iванава", "name:ca": "Ivànovo", "name:de": "Iwanowo", "name:en": "Ivanovo", "name:et": "Ivanovo", "name:eu": "Ivanovo", "name:fi": "Ivanovo", "name:fr": "Ivanovo", "name:hr": "Ivanovo", "name:hu": "Ivanovo", "name:ko": "이바노보", "name:lt": "Ivanovas", "name:pl": "Iwanowo", "name:ru": "Иваново", "name:ru:word_stress": "Ива́ново", "name:sk": "Ivanovo", "name:sr": "Иваново", "name:uk": "Іваново", "name:zh-Hans": "伊万诺沃", "name:zh-Hant": "伊萬諾沃", "official_status": "ru:город", "old_name": "Иваново-Вознесенск", "place": "city", "population": "360687", "population:date": "2023-01-01", "source": "Приложения к постановлению Правительства Ивановской области от 09.09.2009 № 255-п", "source:url": "www.ivanovoobl.ru/materials.aspx?part=107", "wikidata": "Q2630", "wikipedia": "ru:Иваново" }, "geometry": { "type": "Point", "coordinates": [ 40.9737394, 56.9984452 ] } },
{ "type": "Feature", "id": "node/163043169", "properties": { "@id": "node/163043169", "admin_level": "4", "capital": "4", "name": "Томск", "name:ar": "تومسك", "name:be": "Томск", "name:bg": "Томск", "name:ca": "Tomsk", "name:cs": "Tomsk", "name:csb": "Tomsk", "name:cu": "Томьскъ", "name:cv": "Томск", "name:da": "Tomsk", "name:de": "Tomsk", "name:el": "Τομσκ", "name:en": "Tomsk", "name:eo": "Tomsk", "name:es": "Tomsk", "name:et": "Tomsk", "name:eu": "Tomsk", "name:fa": "تومسک", "name:fi": "Tomsk", "name:fr": "Tomsk", "name:hr": "Tomsk", "name:hu": "Tomszk", "name:id": "Tomsk", "name:io": "Tomsk", "name:it": "Tomsk", "name:ja": "トムスク", "name:ko": "톰스크", "name:kv": "Томск", "name:la": "Tomscum", "name:lt": "Tomskas", "name:lv": "Tomska", "name:nl": "Tomsk", "name:nn": "Tomsk", "name:no": "Tomsk", "name:os": "Томск", "name:pl": "Tomsk", "name:pt": "Tomsk", "name:ro": "Tomsk", "name:ru": "Томск", "name:sah": "Томскай", "name:sk": "Tomsk", "name:sl": "Tomsk", "name:sr": "Томск", "name:sv": "Tomsk", "name:tl": "Tomsk", "name:tr": "Tomsk", "name:tt": "Тум", "name:uk": "Томськ", "name:war": "Tomsk", "name:zh": "托木斯克", "official_status": "ru:город", "place": "city", "population": "551505", "population:date": "2023-01-01", "source:population": "https://tmsk.gks.ru/folder/32175", "wikidata": "Q976", "wikipedia": "ru:Томск" }, "geometry": { "type": "Point", "coordinates": [ 84.9523434, 56.4887526 ] } },
{ "type": "Feature", "id": "node/176957217", "properties": { "@id": "node/176957217", "addr:country": "RU", "addr:region": "Ямало-Ненецкий автономный округ", "admin_level": "4", "capital": "4", "int_name": "Salekhard", "name": "Салехард", "name:ca": "Salekhard", "name:de": "Salechard", "name:en": "Salekhard", "name:es": "Salejard", "name:et": "Salehard", "name:fr": "Salekhard", "name:hr": "Salehard", "name:ja": "サレハルド", "name:lt": "Salechardas", "name:mis": "Саля'харад", "name:pl": "Salechard", "name:ru": "Салехард", "name:ru:word_stress": "Салеха́рд", "name:sk": "Salechard", "name:zh-Hans": "萨列哈尔德", "name:zh-Hant": "薩列哈爾德", "note": "wiki: place=city большой город (формально, т.е. от 100 тысяч человек); административный центр субъекта Российской Федерации с населением от 40 тысяч жителей (town, если меньше).", "official_status": "ru:город", "old_name": "Обдорск", "old_name:en": "Khanty sObdorsk", "place": "city", "population": "48619", "population:date": "2023-01-01", "wikidata": "Q6494", "wikipedia": "ru:Салехард" }, "geometry": { "type": "Point", "coordinates": [ 66.6157469, 66.5375387 ] } },
{ "type": "Feature", "id": "node/178951928", "properties": { "@id": "node/178951928", "addr:country": "RU", "addr:region": "Красноярский край", "admin_level": "6", "capital": "4", "contact:email": "adm@admkrsk.ru", "contact:ok": "https://ok.ru/krasnoyarskrf", "contact:phone": "+7 391 2261122", "contact:telegram": "adm_krasnoyarsk", "contact:vk": "https://vk.com/krasnoyarskrf", "contact:website": "http://www.admkrsk.ru", "contact:youtube": "https://www.youtube.com/gorodkrasnoyarsk", "int_name": "Krasnoyarsk", "name": "Красноярск", "name:ar": "كراسنويارسك", "name:ca": "Krasnoiarsk", "name:cs": "Krasnojarsk", "name:de": "Krasnojarsk", "name:en": "Krasnoyarsk", "name:es": "Krasnoyarsk", "name:et": "Krasnojarsk", "name:eu": "Krasnoiarsk", "name:fi": "Krasnojarsk", "name:fr": "Krasnoïarsk", "name:hr": "Krasnojarsk", "name:hu": "Krasznojarszk", "name:ja": "クラスノヤルスク", "name:ko": "크라스노야르스크", "name:lt": "Krasnojarskas", "name:pl": "Krasnojarsk", "name:pt": "Krasnoyarsk", "name:ro": "Krasnoiarsk", "name:ru": "Красноярск", "name:ru:word_stress": "Красноя́рск", "name:sk": "Krasnojarsk", "name:sl": "Krasnojarsk", "name:uk": "Красноярськ", "name:zh-Hans": "克拉斯诺雅尔斯克", "name:zh-Hant": "克拉斯諾亞爾斯克", "official_status": "ru:город", "old_name": "Тамбалык", "place": "city", "population": "1196913", "population:date": "2023-01-01", "source:population": "wikipedia", "start_date": "1628", "wikidata": "Q919", "wikipedia": "ru:Красноярск" }, "geometry": { "type": "Point", "coordinates": [ 92.8725147, 56.0090968 ] } },
{ "type": "Feature", "id": "node/179374935", "properties": { "@id": "node/179374935", "addr:country": "RU", "addr:district": "городской округ Курган", "addr:region": "Курганская область", "admin_level": "4", "capital": "4", "contact:email": "mail@kurgan-city.ru", "contact:phone": "+7 3522 428801", "contact:website": "https://www.kurgan-city.ru", "ele": "75", "int_name": "Kurgan", "loc_name": "Столица Зауралья", "name": "Курган", "name:be": "Курган", "name:ca": "Kurgan", "name:cs": "Kurgan", "name:da": "Kurgan", "name:de": "Kurgan", "name:en": "Kurgan", "name:es": "Kurgán", "name:et": "Kurgan", "name:eu": "Kurgan", "name:fr": "Kourgan", "name:hr": "Kurgan", "name:hu": "Kurgan", "name:ja": "クルガン", "name:ko": "쿠르간", "name:lt": "Kurganas", "name:pl": "Kurhan", "name:ru": "Курган", "name:ru:word_stress": "Курга́н", "name:sk": "Kurgan", "name:sl": "Kurgan", "name:uk": "Курган", "name:zh": "庫爾干", "name:zh-Hant": "庫爾干", "official_status": "ru:город", "old_name": "Царёво Городище; Курганская слобода; Царёво-Курганская слобода; Царёва слобода;", "place": "city", "population": "304727", "population:date": "2022-01-01", "short_name": "КГН", "start_date": "1679", "wikidata": "Q13379", "wikipedia": "ru:Курган (город)" }, "geometry": { "type": "Point", "coordinates": [ 65.3421169, 55.4409357 ] } },
{ "type": "Feature", "id": "node/191636706", "properties": { "@id": "node/191636706", "addr:country": "RU", "addr:region": "Республика Алтай", "admin_level": "4", "capital": "4", "int_name": "Горно-Алтайск", "name": "Горно-Алтайск", "name:ca": "Gorno-Altaisk", "name:de": "Gorno-Altaisk", "name:en": "Gorno-Altaysk", "name:fr": "Gorno-Altaïsk", "name:hr": "Gorno-Altajsk", "name:ja": "ゴルノ=アルタイスク", "name:lt": "Gorno Altaiskas", "name:pl": "Gornoałtajsk", "name:ru": "Горно-Алтайск", "name:sk": "Gorno-Altajsk", "name:sl": "Gorno-Altajsk", "name:zh": "戈尔诺—阿尔泰斯克", "name:zh-Hans": "戈尔诺—阿尔泰斯克", "name:zh-Hant": "戈爾諾—阿爾泰斯克", "note": "административный центр субъекта Российской Федерации с населением от 40 тысяч жителей --- admin centres of Russia and population>40000 are tagged as city", "official_status": "ru:город", "old_name": "Ойрот-Тура", "old_name:en": "Oyrot-Tura", "old_name:ru": "Ойрот-Тура", "place": "city", "population": "64957", "population:date": "2023-01-01", "source:population": "http://www.gks.ru/free_doc/doc_2019/bul_dr/mun_obr2019.rar", "wikidata": "Q6025", "wikipedia": "ru:Горно-Алтайск" }, "geometry": { "type": "Point", "coordinates": [ 85.963653, 51.957775 ] } },
{ "type": "Feature", "id": "node/191638748", "properties": { "@id": "node/191638748", "addr:country": "RU", "admin_level": "4", "capital": "4", "int_name": "Cherkessk", "name": "Черкесск", "name:ar": "تشيركيسك", "name:az": "Çerkessk", "name:ca": "Txerkessk", "name:de": "Tscherkessk", "name:en": "Cherkessk", "name:et": "Tšerkessk", "name:fr": "Tcherkessk", "name:he": "צ'רקסק", "name:hr": "Čerkesk", "name:it": "Čerkessk", "name:ka": "ჩერკესკი", "name:kbd": "Шэрджэс къалэ", "name:krc": "Черкесск", "name:lt": "Čerkeskas", "name:os": "Черкесск", "name:pl": "Czerkiesk", "name:ru": "Черкесск", "name:sk": "Čerkessk", "name:sr": "Черкеск", "name:uk": "Черкеськ", "name:zh": "切尔克斯克", "name:zh-Hans": "切尔克斯克", "name:zh-Hant": "切爾克斯克", "official_status": "ru:город", "place": "city", "population": "122579", "population:date": "2022-01-01", "wikidata": "Q5326", "wikipedia": "ru:Черкесск" }, "geometry": { "type": "Point", "coordinates": [ 42.048257, 44.2285229 ] } },
{ "type": "Feature", "id": "node/191640862", "properties": { "@id": "node/191640862", "addr:country": "RU", "addr:district": "городской округ Йошкар-Ола", "addr:region": "Марий Эл", "admin_level": "4", "capital": "4", "contact:website": "http://i-ola.ru", "int_name": "Yoshkar-Ola", "name": "Йошкар-Ола", "name:ar": "يوشكار-أولا", "name:be": "Іашкар-Ала", "name:ca": "Ioixkar-Olà", "name:cv": "Йошкар-Ола", "name:de": "Joschkar-Ola", "name:en": "Yoshkar-Ola", "name:es": "Yoshkar-Olá", "name:et": "Joškar-Ola", "name:eu": "Joxkar-Ola", "name:fr": "Iochkar-Ola", "name:hr": "Joškar-Ola", "name:ja": "ヨシュカル=オラ", "name:ko": "요시카르올라", "name:lt": "Joškar Ola", "name:mhr": "Йошкар-Ола", "name:mrj": "Якшар-Хала", "name:pl": "Joszkar-Oła", "name:ru": "Йошкар-Ола", "name:ru:word_stress": "Йошка́р-Ола́", "name:sk": "Joškar-Ola", "name:uk": "Йошкар-Ола", "name:zh": "约什卡尔奥拉", "name:zh-Hans": "约什卡尔奥拉", "name:zh-Hant": "約什卡爾奧拉", "official_status": "ru:город", "okato:user": "88401000", "old_name": "Царевококшайск; Краснококшайск;", "place": "city", "population": "279399", "population:date": "2022-01-01", "wikidata": "Q5449", "wikipedia": "ru:Йошкар-Ола" }, "geometry": { "type": "Point", "coordinates": [ 47.8975847, 56.6326996 ] } },
{ "type": "Feature", "id": "node/191641244", "properties": { "@id": "node/191641244", "addr:country": "RU", "addr:region": "Адыгея", "admin_level": "4", "capital": "4", "name": "Майкоп", "name:ab": "Маиҟәаҧа", "name:ady": "Mыекъуапэ", "name:af": "Maikop", "name:ar": "مايكوب", "name:az": "Maykop", "name:ca": "Maikop", "name:ce": "Майкоп", "name:cs": "Majkop", "name:de": "Maikop", "name:el": "Μαϊκόπ", "name:en": "Maykop", "name:eo": "Majkopo", "name:et": "Maikop", "name:eu": "Maikop", "name:fa": "مایکوپ", "name:fr": "Maïkop", "name:he": "מייקופ", "name:hr": "Majkop", "name:hu": "Majkop", "name:hy": "Մայկոպ", "name:ka": "მაიკოპი", "name:kbd": "Мыекъуапэ", "name:ko": "마이코프", "name:krc": "Майкоп", "name:lt": "Maikopas", "name:nl": "Majkop", "name:os": "Майкъоп", "name:pl": "Majkop", "name:pnt": "Μαϊκόπ", "name:ro": "Maykop", "name:ru": "Майкоп", "name:ru:word_stress": "Майко́п", "name:sk": "Majkop", "name:sr": "Мајкоп", "name:tr": "Maykop", "name:uk": "Майкоп", "name:zh": "迈科普", "name:zh-Hans": "迈科普", "name:zh-Hant": "邁科普", "official_status": "ru:город", "place": "city", "population": "139687", "population:date": "2023-01-01", "wikidata": "Q3752", "wikipedia": "ru:Майкоп" }, "geometry": { "type": "Point", "coordinates": [ 40.104053, 44.6062079 ] } },
{ "type": "Feature", "id": "node/191644503", "properties": { "@id": "node/191644503", "addr:country": "RU", "addr:district": "городской округ Махачкала", "addr:postcode": "367000", "addr:region": "Дагестан", "admin_level": "4", "capital": "4", "contact:website": "https://mkala.ru", "int_name": "Makhachkala", "name": "Махачкала", "name:af": "Machatsjkala", "name:ar": "محج قلعة", "name:av": "МахІачхъала", "name:az": "Mahaçqala", "name:az-cyr": "Маһачгала", "name:ca": "Makhatxkalà", "name:ce": "ХӀинжа-гӀала", "name:cs": "Machačkala", "name:dar": "ГIянжи-Къала", "name:de": "Machatschkala", "name:dsb": "Machačkala", "name:el": "Μαχατσκαλά", "name:en": "Makhachkala", "name:es": "Majachkalá", "name:et": "Mahhatškala", "name:eu": "Makhatxkala", "name:fa": "مخاچ‌قلعه", "name:fi": "Mahatškala", "name:fr": "Makhatchkala", "name:hr": "Mahačkala", "name:hsb": "Machačkala", "name:hy": "Մախաչկալա", "name:id": "Makhachkala", "name:it": "Machačkala", "name:ka": "მაჰაჩყალა", "name:kbd": "Мэхьэчкъалэ", "name:kum": "Анжикъала", "name:lbe": "Анжи", "name:lez": "Магьачкъала", "name:lt": "Machačkala", "name:ml": "മഖച്ചകല", "name:mn": "Махачкала", "name:nl": "Machatsjkala", "name:os": "Махачкала", "name:pl": "Machaczkała", "name:pt": "Mahackala", "name:ro": "Mahacikala", "name:ru": "Махачкала", "name:ru:word_stress": "Махачкала́", "name:rut": "МахаIчкала", "name:sk": "Machačkala", "name:sr": "Махачкала", "name:sv": "Machatjkala", "name:tab": "Мягьячгъала", "name:tr": "Mahaçkale", "name:tt": "Махачкала", "name:uk": "Махачкала", "name:zh": "马哈奇卡拉", "name:zh-Hans": "马哈奇卡拉", "name:zh-Hant": "馬哈奇卡拉", "official_status": "ru:город", "place": "city", "population": "622660", "population:date": "2023-01-01", "start_date": "1844", "wikidata": "Q5168", "wikipedia": "ru:Махачкала" }, "geometry": { "type": "Point", "coordinates": [ 47.5048717, 42.9830241 ] } },
{ "type": "Feature", "id": "node/191648647", "properties": { "@id": "node/191648647", "addr:country": "RU", "admin_level": "4", "capital": "4", "contact:website": "https://gorod-elista.ru", "int_name": "Elista", "name": "Элиста", "name:ca": "Elistà", "name:de": "Elista", "name:en": "Elista", "name:es": "Elistá", "name:et": "Elista", "name:fr": "Elista", "name:hr": "Elista", "name:hu": "Eliszta", "name:lt": "Elista", "name:ml": "എലിസ്റ്റ", "name:pl": "Elista", "name:ru": "Элиста", "name:ru:word_stress": "Элиста́", "name:sk": "Elista", "name:sr": "Елиста", "name:uk": "Еліста", "name:vi": "Elista", "name:xal": "Элст", "name:zh": "埃利斯塔", "official_status": "ru:город", "old_name:ru": "Степной", "place": "city", "population": "102428", "population:date": "2023-01-01", "wikidata": "Q3977", "wikipedia": "ru:Элиста" }, "geometry": { "type": "Point", "coordinates": [ 44.270187, 46.306999 ] } },
{ "type": "Feature", "id": "node/191650708", "properties": { "@id": "node/191650708", "addr:postcode": "167000", "capital": "4", "int_name": "Syktyvkar", "name": "Сыктывкар", "name:ca": "Siktivkar", "name:de": "Syktywkar", "name:en": "Syktyvkar", "name:es": "Syktyvkar", "name:et": "Sõktõvkar", "name:fr": "Syktyvkar", "name:hr": "Siktivkar", "name:ja": "スィクティフカル", "name:ka": "სიქტივკარი", "name:ko": "식팁카르", "name:kv": "Сыктывкар", "name:lt": "Syktyvkaras", "name:pl": "Syktywkar", "name:ru": "Сыктывкар", "name:ru:word_stress": "Сыктывка́р", "name:sk": "Syktyvkar", "name:uk": "Сиктивкар", "name:zh": "瑟克特夫卡尔", "name:zh-Hans": "瑟克特夫卡尔", "name:zh-Hant": "瑟克特夫卡爾", "official_status": "ru:город", "old_name": "Усть-Сысольск", "place": "city", "population": "220042", "population:date": "2023-01-01", "wikidata": "Q2143", "wikipedia": "ru:Сыктывкар" }, "geometry": { "type": "Point", "coordinates": [ 50.8352024, 61.6685237 ] } },
{ "type": "Feature", "id": "node/191651581", "properties": { "@id": "node/191651581", "addr:country": "RU", "admin_level": "4", "alt_name:mdf": "Саранск", "alt_name:myv": "Саранск", "capital": "4", "int_name": "Saransk", "name": "Саранск", "name:be": "Саранск", "name:ca": "Saransk", "name:cv": "Саранош", "name:de": "Saransk", "name:en": "Saransk", "name:et": "Saransk", "name:eu": "Saransk", "name:fr": "Saransk", "name:hr": "Saransk", "name:ja": "サランスク", "name:ko": "사란스크", "name:lt": "Saranskas", "name:mdf": "Саранош", "name:myv": "Саран ош", "name:pl": "Sarańsk", "name:ru": "Саранск", "name:ru:word_stress": "Сара́нск", "name:sk": "Saransk", "name:tt": "Саранск", "name:uk": "Саранськ", "name:zh": "萨兰斯克", "name:zh-Hans": "萨兰斯克", "name:zh-Hant": "薩蘭斯克", "official_status": "ru:город", "place": "city", "population": "312252", "population:date": "2023-01-01", "website": "https://www.adm-saransk.ru", "wikidata": "Q5343", "wikipedia": "ru:Саранск" }, "geometry": { "type": "Point", "coordinates": [ 45.18383, 54.18671 ] } },
{ "type": "Feature", "id": "node/191652335", "properties": { "@id": "node/191652335", "alt_name": "Дьокуускай", "capital": "4", "contact:email": "yakutsk@sakha.ru", "contact:website": "https://yakutskcity.ru", "ele": "194", "flag": "https://upload.wikimedia.org/wikipedia/commons/thumb/4/40/Flag_of_Yakutsk.svg/2000px-Flag_of_Yakutsk.svg.png", "int_name": "Yakutsk", "name": "Якутск", "name:be": "Якуцк", "name:ca": "Iakutsk", "name:ckb": "یاکوتسک", "name:cs": "Jakutsk", "name:da": "Jakutsk", "name:de": "Jakutsk", "name:en": "Yakutsk", "name:es": "Yakutsk", "name:et": "Jakutsk", "name:fr": "Iakoutsk", "name:hr": "Jakutsk", "name:hu": "Jakutszk", "name:ja": "ヤクーツク", "name:ko": "야쿠츠크", "name:ku": "Yakutisk", "name:lt": "Jakutskas", "name:nl": "Jakoetsk", "name:pl": "Jakuck", "name:ru": "Якутск", "name:ru:word_stress": "Яку́тск", "name:sah": "Дьокуускай", "name:sk": "Jakutsk", "name:sv": "Jakutsk", "name:uk": "Якутськ", "name:zh": "雅库茨克", "name:zh-Hans": "雅库茨克", "name:zh-Hant": "雅庫茨克", "official_status": "ru:город", "place": "city", "population": "361154", "population:date": "2023-01-01", "start_date": "1632", "wikidata": "Q6610", "wikipedia": "ru:Якутск" }, "geometry": { "type": "Point", "coordinates": [ 129.731978700000013, 62.0274078 ] } },
{ "type": "Feature", "id": "node/191655065", "properties": { "@id": "node/191655065", "addr:country": "RU", "admin_level": "4", "capital": "4", "ele": "631", "int_name": "Kyzyl", "name": "Кызыл", "name:be": "Кызыл", "name:ca": "Kizil", "name:de": "Kysyl", "name:en": "Kyzyl", "name:et": "Kõzõl", "name:fr": "Kyzyl", "name:hr": "Kizil", "name:ja": "クズル", "name:ko": "키질", "name:lt": "Kyzylas", "name:pl": "Kyzył", "name:ru": "Кызыл", "name:sk": "Kyzyl", "name:sl": "Kizil", "name:tyv": "Кызыл", "name:uk": "Кизил", "name:zh": "克孜勒", "name:zh-Hant": "克孜勒", "official_status": "ru:город", "place": "city", "population": "123260", "population:date": "2022-01-01", "source:population": "http://www.gks.ru/free_doc/doc_2019/bul_dr/mun_obr2019.rar", "start_date": "1914", "wikidata": "Q6049", "wikipedia": "ru:Кызыл" }, "geometry": { "type": "Point", "coordinates": [ 94.4300679, 51.719079 ] } },
{ "type": "Feature", "id": "node/191667890", "properties": { "@id": "node/191667890", "addr:country": "RU", "addr:postcode": "683000", "addr:region": "Камчатский край", "admin_level": "4", "capital": "4", "contact:website": "http://www.pkgo.ru", "image": "https://upload.wikimedia.org/wikipedia/commons/3/3d/Петропавловск_Камчатский_(141778453).jpeg", "int_name": "Petropavlovsk-Kamchatsky", "name": "Петропавловск-Камчатский", "name:ar": "بيتروبافلوفسك-كامتشاتسكي", "name:ca": "Petropàvlovsk-Kamtxatski", "name:cs": "Petropavlovsk-Kamčatskij", "name:da": "Petropavlovsk-Kamtjatskij", "name:de": "Petropawlowsk-Kamtschatski", "name:en": "Petropavlovsk-Kamchatsky", "name:es": "Petropávlovsk-Kamchatski", "name:et": "Petropavlovsk-Kamtšatski", "name:eu": "Petropavlovsk-Kamtxatski", "name:fa": "پتروپاولوفسک-کامچاتسکیی", "name:fi": "Petropavlovsk-Kamtšatski", "name:fr": "Petropavlovsk-Kamtchatski", "name:hr": "Petropavlovsk-Kamčatski", "name:hu": "Petropavlovszk-Kamcsatszkij", "name:hy": "Կամչատկայի Պետրոպավլովսկ", "name:ja": "ペトロパブロフスク=カムチャツキー", "name:ko": "페트로파블롭스크캄차츠키", "name:lt": "Kamčiatkos Petropavlovskas", "name:nl": "Petropavlovsk-Kamtsjatski", "name:pl": "Pietropawłowsk Kamczacki", "name:pt": "Petropavlovsk-Kamchatskiy", "name:ru": "Петропавловск-Камчатский", "name:ru:word_stress": "Петропа́вловск-Камча́тский", "name:sk": "Petropavlovsk-Kamčatskij", "name:sl": "Petropavlovsk-Kamcatski", "name:sv": "Petropavlovsk-Kamtjatskij", "name:uk": "Петропавловськ-Камчатський", "name:ur": "پٹروپاولوسک-کامچاٹسکی", "name:zh": "堪察加彼得巴甫洛夫斯克", "name:zh-Hant": "堪察加彼得巴夫洛夫斯克", "official_status": "ru:город", "old_name": "Петропавловский острог;Петропавловская гавань;Петропавловский порт;", "place": "city", "population": "162992", "population:date": "2023-01-01", "start_date": "1740", "wikidata": "Q7951", "wikipedia": "ru:Петропавловск-Камчатский" }, "geometry": { "type": "Point", "coordinates": [ 158.647135600000013, 53.0199838 ] } },
{ "type": "Feature", "id": "node/191698855", "properties": { "@id": "node/191698855", "addr:country": "RU", "addr:region": "Владимирская область", "admin_level": "4", "alt_name": "Владимир-на-Клязьме;Владимир-Залесский", "alt_name:be": "Уладзімір-на-Клязьме;Уладзімір-Залескі", "alt_name:ru": "Владимир-на-Клязьме;Владимир-Залесский", "alt_name:uk": "Володимир-на-Клязьмі;Володимир-Заліський", "capital": "4", "contact:website": "https://www.vladimir-city.ru", "name": "Владимир", "name:af": "Wladimir", "name:ar": "فلاديمير", "name:be": "Уладзімір", "name:bg": "Владимир", "name:br": "Vladimir", "name:ca": "Vladímir", "name:ce": "Владимир", "name:cs": "Vladimir", "name:cv": "Владимир", "name:da": "Vladimir", "name:de": "Wladimir", "name:el": "Βλαντίμιρ", "name:en": "Vladimir", "name:eo": "Vladimir", "name:es": "Vladímir", "name:et": "Vladimir", "name:eu": "Vladimir", "name:fa": "ولادیمیر (شهر)", "name:fi": "Vladimir", "name:fr": "Vladimir", "name:fy": "Vladimir", "name:gl": "Vladimir", "name:he": "ולדימיר", "name:hr": "Vladimir", "name:hu": "Vlagyimir", "name:id": "Vladimir", "name:io": "Vladimir", "name:it": "Vladimir", "name:ja": "ウラジーミル", "name:ka": "ვლადიმირი", "name:ko": "블라디미르", "name:ku": "Vladîmîr", "name:ky": "Владимир", "name:la": "Volodimiria", "name:lt": "Vladimiras", "name:lv": "Vladimira", "name:mk": "Владимир", "name:ml": "വ്ലാഡിമിർ", "name:mn": "Владимир", "name:nl": "Vladimir", "name:nn": "Vladimir", "name:no": "Vladimir", "name:oc": "Vladímir", "name:os": "Владимир", "name:pl": "Włodzimierz", "name:pt": "Vladimir", "name:qu": "Vladimir", "name:ro": "Vladimir", "name:ru": "Владимир", "name:ru:word_stress": "Влади́мир", "name:sk": "Vladimír", "name:sl": "Vladimir", "name:sr": "Владимир", "name:sv": "Vladimir", "name:tl": "Vladimir", "name:tr": "Vladimir", "name:uk": "Володимир", "name:uz": "Vladimir", "name:vi": "Vladimir", "name:zh-Hans": "弗拉基米尔", "name:zh-Hant": "弗拉基米爾", "official_status": "ru:город", "place": "city", "population": "346771", "population:date": "2023-01-01", "start_date": "1108", "wikidata": "Q2684", "wikipedia": "ru:Владимир (город)" }, "geometry": { "type": "Point", "coordinates": [ 40.4075203, 56.1288899 ] } },
{ "type": "Feature", "id": "node/191723030", "properties": { "@id": "node/191723030", "addr:country": "RU", "addr:region": "Сахалинская область", "admin_level": "4", "capital": "4", "int_name": "Yuzhno-Sakhalinsk", "name": "Южно-Сахалинск", "name:ca": "Iujno-Sakhalinsk", "name:cs": "Južno-Sachalinsk", "name:de": "Juschno-Sachalinsk", "name:en": "Yuzhno-Sakhalinsk", "name:es": "Yuzhno-Sajalinsk", "name:et": "Južno-Sahhalinsk", "name:eu": "Juzhno-Sakhalinsk", "name:fr": "Ioujno-Sakhalinsk", "name:hr": "Južno-Sahalinsk", "name:ja": "ユジノ=サハリンスク", "name:ko": "유즈노사할린스크", "name:lt": "Južno Sachalinskas", "name:pl": "Jużnosachalińsk", "name:ru": "Южно-Сахалинск", "name:ru:word_stress": "Ю́жно-Сахали́нск", "name:sk": "Južno-Sachalinsk", "name:sl": "Juzno-Sahalinsk", "name:uk": "Южно-Сахалінськ", "name:zh": "南萨哈林斯克", "name:zh-Hans": "南萨哈林斯克", "name:zh-Hant": "南薩哈林斯克", "official_status": "ru:город", "old_name:1882-1905": "Владимировка", "old_name:1882-1905:cs": "Vladimirovka", "old_name:1882-1905:en": "Vladimirovka", "old_name:1882-1905:ru": "Владимировка", "old_name:1905-1946": "豊原市 (Toyohara)", "old_name:1905-1946:cs": "Tojohara", "old_name:1905-1946:en": "Toyohara", "old_name:1905-1946:ja": "豊原市", "old_name:1905-1946:ru": "Тоёхара", "old_name:1905-1946:zh": "丰原市", "old_name:1905-1946:zh-Hans": "丰原市", "old_name:1905-1946:zh-Hant": "豐原市", "place": "city", "population": "180467", "population:date": "2023-01-01", "start_date": "1882", "website": "https://yuzhno-sakh.ru/", "wikidata": "Q7859", "wikipedia": "ru:Южно-Сахалинск" }, "geometry": { "type": "Point", "coordinates": [ 142.727438, 46.9574273 ] } },
{ "type": "Feature", "id": "node/191725784", "properties": { "@id": "node/191725784", "addr:country": "RU", "addr:region": "Тамбовская область", "admin_level": "4", "capital": "4", "name": "Тамбов", "name:af": "Tambof", "name:be": "Тамбоў", "name:ca": "Tambov", "name:de": "Tambow", "name:en": "Tambov", "name:es": "Tambov", "name:et": "Tambov", "name:eu": "Tambov", "name:fr": "Tambov", "name:he": "טמבוב", "name:hr": "Tambov", "name:hu": "Tambov", "name:ko": "탐보프", "name:lt": "Tambovas", "name:lv": "Tambova", "name:pl": "Tambow", "name:ru": "Тамбов", "name:sk": "Tambov", "name:sr": "Тамбов", "name:uk": "Тамбов", "name:zh": "坦波夫", "official_status": "ru:город", "place": "city", "population": "292140", "population:date": "2020", "wikidata": "Q3544", "wikipedia": "ru:Тамбов" }, "geometry": { "type": "Point", "coordinates": [ 41.4523988, 52.7216164 ] } },
{ "type": "Feature", "id": "node/191733890", "properties": { "@id": "node/191733890", "addr:country": "RU", "addr:region": "Ненецкий автономный округ", "admin_level": "4", "capital": "4", "contact:website": "https://www.adm-nmar.ru", "name": "Нарьян-Мар", "name:ca": "Narian-Mar", "name:de": "Narjan-Mar", "name:en": "Nar'yan-Mar", "name:es": "Narian-Mar", "name:fr": "Narian-Mar", "name:hr": "Narjan-Mar", "name:ja": "ナリヤン=マル", "name:lt": "Narjan Maras", "name:pl": "Narjan-Mar", "name:ru": "Нарьян-Мар", "name:sk": "Narjan-Mar", "name:uk": "Нар'ян-Мар", "name:zh-Hans": "纳里扬马尔", "name:zh-Hant": "納里揚馬爾", "note": "wiki: place=city большой город (формально, т.е. от 100 тысяч человек); административный центр субъекта Российской Федерации с населением от 40 тысяч жителей (town, если меньше).", "official_status": "ru:город", "place": "city", "population": "23579", "population:date": "2023-01-01", "source:population": "wikipedia", "wikidata": "Q2174", "wikipedia": "ru:Нарьян-Мар" }, "geometry": { "type": "Point", "coordinates": [ 53.0071044, 67.6380175 ] } },
{ "type": "Feature", "id": "node/191736223", "properties": { "@id": "node/191736223", "addr:postcode": "628000", "admin_level": "4", "capital": "4", "int_name": "Khanty-Mansiysk", "name": "Ханты-Мансийск", "name:ca": "Khanti-Mansisk", "name:de": "Chanty-Mansijsk", "name:en": "Khanty-Mansiysk", "name:es": "Janti-Mansisk", "name:et": "Hantõ-Mansiisk", "name:fr": "Khanty-Mansiïsk", "name:hr": "Hanti-Mansijsk", "name:hu": "Hanti-Manszijszk", "name:ja": "ハンティ・マンシースク", "name:ko": "한티만시스크", "name:lt": "Chanty Mansijskas", "name:pl": "Chanty-Mansyjsk", "name:ru": "Ханты-Мансийск", "name:ru:word_stress": "Ха́нты-Манси́йск", "name:sk": "Chanty-Mansijsk", "name:uk": "Ханти-Мансійськ", "name:zh-Hans": "汉特-曼西斯克", "name:zh-Hant": "漢特-曼西斯克", "official_status": "ru:город", "okato:user": "71131000000", "oktmo:user": "71871000001", "place": "city", "population": "109745", "population:date": "2023-01-01", "wikidata": "Q6329", "wikipedia": "ru:Ханты-Мансийск" }, "geometry": { "type": "Point", "coordinates": [ 69.0190006, 61.0034448 ] } },
{ "type": "Feature", "id": "node/191736988", "properties": { "@id": "node/191736988", "addr:country": "RU", "addr:district": "городской округ Анадырь", "addr:postcode": "689000", "addr:region": "Чукотский автономный округ", "alt_name": "Кагыргын; Въэӈын", "capital": "4", "ele": "35", "int_name": "Anadyr", "loc_name": "Кагыргын;Въэӈын;Онандырь", "name": "Анадырь", "name:ca": "Anadir", "name:ckb": "ئەنادر", "name:de": "Anadyr", "name:en": "Anadyr", "name:hr": "Anadir", "name:ja": "アナディリ", "name:lt": "Anadyris", "name:ru": "Анадырь", "name:sk": "Anadyr", "name:sv": "Anadyr", "name:zh": "阿纳德尔", "official_status": "ru:город", "old_name": "Ново-Мариинск", "place": "town", "population": "13202", "population:date": "2021-10-01", "postal_code": "689000", "start_date": "1889", "website": "http://www.adm.anadyr.ru", "wikidata": "Q7978", "wikipedia": "ru:Анадырь" }, "geometry": { "type": "Point", "coordinates": [ 177.5060925, 64.7316875 ] } },
{ "type": "Feature", "id": "node/191738860", "properties": { "@id": "node/191738860", "addr:country": "RU", "addr:region": "Еврейская автономная область", "admin_level": "4", "capital": "4", "contact:website": "http://www.biradm.ru", "int_name": "Birobidzhan", "name": "Биробиджан", "name:af": "Birobidzjan", "name:ar": "بيروبيجان", "name:az": "Birobican", "name:be": "Бірабіджан", "name:bs": "Birobidžan", "name:ca": "Birobidjan", "name:cs": "Birobidžan", "name:da": "Birobidzjan", "name:de": "Birobidschan", "name:en": "Birobidzhan", "name:eo": "Birobiĝano", "name:es": "Birobidzhán", "name:et": "Birobidžan", "name:fa": "بیروبیجان", "name:fi": "Birobidžan", "name:fr": "Birobidjan", "name:he": "בירוביג'ן", "name:hr": "Birobidžan", "name:hu": "Birobidzsan", "name:id": "Birobidzhan", "name:it": "Birobidžan", "name:ja": "ビロビジャン", "name:ko": "비로비잔", "name:ku": "Bîrobîcan", "name:lad": "Birobidjan", "name:lb": "Birobidjan", "name:lt": "Birobidžanas", "name:lv": "Birobidžana", "name:mk": "Биробиџан", "name:nl": "Birobidzjan", "name:nn": "Birobidzjan", "name:no": "Birobidzjan", "name:pl": "Birobidżan", "name:pnb": "بیروبیجان", "name:pt": "Birobidjan", "name:ro": "Birobidjan", "name:ru": "Биробиджан", "name:ru:word_stress": "Биробиджа́н", "name:sco": "Birobidzhan", "name:sk": "Birobidžan", "name:sr": "Биробиџан", "name:sv": "Birobidzjan", "name:tl": "Birobidzhan", "name:uk": "Біробіджан", "name:vep": "Birobidžan", "name:vi": "Birobidzhan", "name:war": "Birobidzhan", "name:yi": "ביראָבידזשאַן", "name:zh": "比罗比詹", "name:zh-Hans": "比罗比詹", "name:zh-Hant": "比羅比詹", "official_status": "ru:город", "place": "city", "population": "68536", "population:date": "2023-10-01", "wikidata": "Q7769", "wikipedia": "ru:Биробиджан" }, "geometry": { "type": "Point", "coordinates": [ 132.9282082, 48.7881668 ] } },
{ "type": "Feature", "id": "node/246459003", "properties": { "@id": "node/246459003", "addr:region": "Калужская область", "admin_level": "4", "capital": "4", "name": "Калуга", "name:af": "Kaloega", "name:ar": "كالوغا", "name:az": "Kaluqa", "name:be": "Калуга", "name:ca": "Kaluga", "name:de": "Kaluga", "name:el": "Καλούγκα", "name:en": "Kaluga", "name:eo": "Kaluga", "name:et": "Kaluga", "name:eu": "Kaluga", "name:fa": "کالوگا", "name:fr": "Kalouga", "name:he": "קלוגה", "name:hr": "Kaluga", "name:hsb": "Kaluga", "name:hu": "Kaluga", "name:hy": "Կալուգա", "name:ja": "カルーガ", "name:ka": "კალუგა", "name:kn": "ಕಲೂಗಾ", "name:ko": "칼루가", "name:la": "Caluga", "name:lt": "Kaluga", "name:mr": "कालुगा", "name:nl": "Kaloega", "name:pl": "Kaługa", "name:pnb": "کلوگا", "name:pt": "Kaluga", "name:ro": "Kaluga", "name:ru": "Калуга", "name:ru:word_stress": "Калу́га", "name:sh": "Kaluga", "name:sk": "Kaluga", "name:sr": "Калуга", "name:tr": "Kaluga", "name:uk": "Калуга", "name:vep": "Kalug", "name:zh-Hans": "卡卢加", "name:zh-Hant": "卡盧加", "official_status": "ru:город", "place": "city", "population": "333954", "population:date": "2023-01-01", "start_date": "1371", "website": "https://www.kaluga-gov.ru/", "wikidata": "Q2837", "wikipedia": "ru:Калуга" }, "geometry": { "type": "Point", "coordinates": [ 36.2598115, 54.5101087 ] } },
{ "type": "Feature", "id": "node/251073791", "properties": { "@id": "node/251073791", "addr:region": "Севастополь", "addr:region:ru": "Севастополь", "addr:region:uk": "Севастополь", "alt_name:tr": "Sivastopol", "capital": "4", "int_name": "Sevastopol", "katotth": "UA85000000000065278", "koatuu": "8500000000", "name": "Севастополь", "name:ar": "سيفاستوبول", "name:be": "Севастопаль", "name:br": "Sebastopol", "name:ca": "Sebastòpol", "name:ckb": "سێڤاستۆپۆل", "name:crh": "Aqyar", "name:cs": "Sevastopol", "name:de": "Sewastopol", "name:el": "Σεβαστούπολη", "name:en": "Sevastopol", "name:eo": "Sebastopolo", "name:es": "Sebastopol", "name:et": "Sevastopol", "name:eu": "Sebastopol", "name:fr": "Sébastopol", "name:he": "סבסטופול", "name:hr": "Sevastopolj", "name:hu": "Szevasztopol", "name:io": "Sevastopol", "name:it": "Sebastopoli", "name:ja": "セバストポリ", "name:kn": "ಸೆವಸ್ತೋಪೊಲ್", "name:ko": "세바스토폴", "name:ku": "Sêvastopol", "name:la": "Sebastopolis", "name:lt": "Sevastopolis", "name:lv": "Sevastopole", "name:mk": "Севастопол", "name:ml": "സെവാസ്റ്റോപോൾ", "name:nl": "Sebastopol", "name:pl": "Sewastopol", "name:prefix": "город", "name:pt": "Sebastopol", "name:ro": "Sevastopol", "name:ru": "Севастополь", "name:sk": "Sevastopoľ", "name:sr": "Севастопољ", "name:tr": "Akyar", "name:tt": "Акъяр", "name:uk": "Севастополь", "name:zh": "塞瓦斯托波尔", "name:zh-Hans": "塞瓦斯托波尔", "name:zh-Hant": "塞瓦斯托波爾", "note": "population дано по сумме Гагаринского, Ленинского, Нахимовского районов, без Инкермана, Балаклавы, Качи и сельских нп.", "official_status": "ru:город", "old_name": "Ахтиар", "place": "city", "population": "458253", "population:date": "2023-01-01", "source:name:br": "ofis publik ar brezhoneg", "website": "https://sevastopol.gov.ru/", "wikidata": "Q7525", "wikipedia": "ru:Севастополь", "wikipedia:pl": "Sewastopol", "wikipedia:ru": "Севастополь", "wikipedia:uk": "Севастополь" }, "geometry": { "type": "Point", "coordinates": [ 33.5220842, 44.6054434 ] } },
{ "type": "Feature", "id": "node/251645471", "properties": { "@id": "node/251645471", "addr:country": "RU", "addr:district": "городской округ Чита", "addr:region": "Забайкальский край", "admin_level": "4", "capital": "4", "int_name": "Chita", "name": "Чита", "name:be": "Чыта", "name:ca": "Txità", "name:cs": "Čita", "name:de": "Tschita", "name:en": "Chita", "name:et": "Tšita", "name:eu": "Txita", "name:fr": "Tchita", "name:hr": "Čita", "name:ja": "チタ", "name:ko": "치타", "name:lt": "Čita", "name:pl": "Czyta", "name:ru": "Чита", "name:sk": "Čita", "name:sl": "Čita", "name:uk": "Чита", "name:zh": "赤塔", "official_status": "ru:город", "place": "city", "population": "333679", "population:date": "2023-01-01", "wikidata": "Q53139", "wikipedia": "ru:Чита" }, "geometry": { "type": "Point", "coordinates": [ 113.500893, 52.033409 ] } },
{ "type": "Feature", "id": "node/252176252", "properties": { "@id": "node/252176252", "addr:postcode": "295000-295490", "capital": "4", "name": "Симферополь", "name:be": "Сімфэропаль", "name:ca": "Simferòpol", "name:ckb": "سیمفێرۆپۆل", "name:crh": "Aqmescit", "name:crh-cyr": "Акъмесджит", "name:cs": "Simferopol", "name:de": "Simferopol", "name:el": "Συμφερούπολη", "name:en": "Simferopol", "name:es": "Simferópol", "name:et": "Simferopol", "name:eu": "Simferopol", "name:fr": "Simferopol", "name:he": "סימפרופול", "name:hr": "Simferopolj", "name:hu": "Szimferopol", "name:it": "Sinferopoli", "name:ja": "シムフェローポリ", "name:ko": "심페로폴", "name:ku": "Sîmfêropol", "name:lt": "Simferopolis", "name:mk": "Симферопол", "name:ml": "സിംഫെറോപോൾ", "name:nl": "Simferopol", "name:pl": "Symferopol", "name:prefix": "город", "name:ro": "Simferopol", "name:ru": "Симферополь", "name:sk": "Simferopol", "name:sr": "Симферопољ", "name:tr": "Akmescit", "name:uk": "Сімферополь", "name:zh": "辛菲罗波尔 / 辛費羅波爾", "name:zh-Hans": "辛菲罗波尔", "name:zh-Hant": "辛費羅波爾", "official_status": "ru:город", "place": "city", "population": "340540", "population:date": "2021-01-01", "wikidata": "Q19566", "wikipedia": "ru:Симферополь", "wikipedia:ru": "Симферополь", "wikipedia:uk": "Сімферополь" }, "geometry": { "type": "Point", "coordinates": [ 34.1024858, 44.9521459 ] } },
{ "type": "Feature", "id": "node/269342417", "properties": { "@id": "node/269342417", "addr:country": "RU", "addr:district": "городской округ Мурманск", "addr:region": "Мурманская область", "admin_level": "4", "alt_name:fi": "Muurmanski", "capital": "4", "ele": "50", "int_name": "Murmansk", "name": "Мурманск", "name:be": "Мурманск", "name:ca": "Múrmansk", "name:de": "Murmansk", "name:en": "Murmansk", "name:es": "Múrmansk", "name:et": "Murmansk", "name:eu": "Murmansk", "name:fi": "Murmansk", "name:fr": "Mourmansk", "name:hr": "Murmansk", "name:hu": "Murmanszk", "name:ja": "ムルマンスク", "name:ko": "무르만스크", "name:lt": "Murmanskas", "name:nl": "Moermansk", "name:no": "Murmansk", "name:pl": "Murmańsk", "name:ru": "Мурманск", "name:se": "Murmanska", "name:sk": "Murmansk", "name:sms": "Muurman", "name:sr": "Мурманск", "name:sv": "Murmansk", "name:uk": "Мурманськ", "name:zh": "摩尔曼斯克", "name:zh-Hans": "摩尔曼斯克", "name:zh-Hant": "摩爾曼斯克", "official_status": "ru:город", "old_name:fi": "Muurmanni", "place": "city", "population": "279064", "population:date": "2022-01-01", "start_date": "1916", "wikidata": "Q1763", "wikipedia": "ru:Мурманск" }, "geometry": { "type": "Point", "coordinates": [ 33.07497, 68.970665 ] } },
{ "type": "Feature", "id": "node/276628719", "properties": { "@id": "node/276628719", "addr:country": "RU", "addr:region": "Архангельская область", "admin_level": "4", "alt_name:en": "Archangel", "capital": "4", "contact:website": "https://www.arhcity.ru", "image": "https://upload.wikimedia.org/wikipedia/commons/3/3e/Arkhangelsk_view_from_Vysotka.jpg", "int_name": "Arkhangelsk", "name": "Архангельск", "name:ar": "أرخانغلسك", "name:az": "Arxangelsk", "name:ca": "Arkhànguelsk", "name:da": "Arkhangelsk", "name:de": "Archangelsk", "name:el": "Αρχάγγελσκ", "name:en": "Arkhangelsk", "name:es": "Arjángelsk", "name:et": "Arhangelsk", "name:eu": "Arkhangelsk", "name:fi": "Arkangeli", "name:fr": "Arkhangelsk", "name:hr": "Arhangeljsk", "name:hu": "Arhangelszk", "name:hy": "Արխանգելսկ", "name:it": "Arcangelo", "name:ja": "アルハンゲリスク", "name:ka": "არხანგელსკი", "name:ko": "아르한겔스크", "name:la": "Archangelopolis", "name:lt": "Archangelskas", "name:lv": "Arhangeļska", "name:mhr": "Архангельск", "name:nl": "Archangelsk", "name:os": "Архангельск", "name:pl": "Archangielsk", "name:pt": "Arcangel", "name:ro": "Arhanghelsk", "name:ru": "Архангельск", "name:sk": "Archangeľsk", "name:sr": "Архангељск", "name:tr": "Arhangelsk", "name:uk": "Архангельськ", "name:vi": "Arkhangelsk", "name:zh": "阿尔汉格尔斯克", "name:zh-Hans": "阿尔汉格尔斯克", "name:zh-Hant": "阿爾漢格爾斯克", "official_status": "ru:город", "place": "city", "population": "298617", "population:date": "2023", "wikidata": "Q1851", "wikipedia": "ru:Архангельск" }, "geometry": { "type": "Point", "coordinates": [ 40.537121, 64.543022 ] } },
{ "type": "Feature", "id": "node/277060995", "properties": { "@id": "node/277060995", "alt_name:zh": "喀巴罗甫斯克", "alt_name:zh-Hans": "喀巴罗甫斯克", "alt_name:zh-Hant": "喀巴羅甫斯克", "capital": "4", "contact:email": "cityhall@khabarovskadm.ru", "contact:facebook": "https://www.facebook.com/Municipality.Khvabarovsk", "contact:instagram": "https://www.instagram.com/khabarovsk_adm", "contact:phone": "+7 4212 304674", "contact:vk": "https://vk.com/khabarovskadm", "contact:website": "https://www.khabarovskadm.ru", "ele": "72", "int_name": "Khabarovsk", "name": "Хабаровск", "name:af": "Chabarofsk", "name:ar": "خاباروفسك", "name:be": "Хабараўск", "name:bg": "Хабаровск", "name:bs": "Habarovsk", "name:ca": "Khabàrovsk", "name:da": "Khabarovsk", "name:de": "Chabarowsk", "name:en": "Khabarovsk", "name:es": "Jabárovsk", "name:et": "Habarovsk", "name:eu": "Khabarovsk", "name:fa": "خاباروفسک", "name:fi": "Habarovsk", "name:fr": "Khabarovsk", "name:he": "חברובסק", "name:hr": "Habarovsk", "name:it": "Chabarovsk", "name:ja": "ハバロフスク", "name:ko": "하바롭스크", "name:lt": "Chabarovskas", "name:mr": "खबारोव्स्क", "name:nl": "Chabarovsk", "name:pl": "Chabarowsk", "name:ro": "Habarovsk", "name:ru": "Хабаровск", "name:ru:word_stress": "Хаба́ровск", "name:sk": "Chabarovsk", "name:sl": "Habarovsk", "name:sr-Latn": "Habarovsk", "name:uk": "Хабаровськ", "name:zh": "伯力", "name:zh-Hans": "伯力", "name:zh-Hant": "伯力", "official_name:zh": "哈巴罗夫斯克", "official_name:zh-Hans": "哈巴罗夫斯克", "official_name:zh-Hant": "哈巴羅夫斯克", "official_status": "ru:город", "old_name": "Бури;Хабарово;Хабаровка", "place": "city", "population": "617168", "population:date": "2023-10-01", "start_date": "1858-06-12", "wikidata": "Q4454", "wikipedia": "ru:Хабаровск" }, "geometry": { "type": "Point", "coordinates": [ 135.0762968, 48.4812568 ] } },
{ "type": "Feature", "id": "node/390614421", "properties": { "@id": "node/390614421", "addr:region": "Кемеровская область", "admin_level": "4", "capital": "4", "int_name": "Kemerovo", "name": "Кемерово", "name:ar": "كيميروفو", "name:az": "Kemerovo", "name:be": "Кемерава", "name:be-tarask": "Кемерава", "name:ca": "Kèmerovo", "name:cs": "Kemerovo", "name:de": "Kemerowo", "name:en": "Kemerovo", "name:eo": "Kemerovo", "name:et": "Kemerovo", "name:eu": "Kemerovo", "name:fr": "Kemerovo", "name:he": "קמרובו", "name:hr": "Kemerovo", "name:ja": "ケメロヴォ", "name:ko": "케메로보", "name:lt": "Kemerovas", "name:pl": "Kemerowo", "name:ro": "Kemerovo", "name:ru": "Кемерово", "name:ru:word_stress": "Ке́мерово", "name:sk": "Kemerovo", "name:sl": "Kemerovo", "name:uk": "Кемерово", "name:uz": "Kemerovo", "name:zh-Hans": "克麦罗沃", "name:zh-Hant": "克麥羅沃", "official_status": "ru:город", "old_name": "Щегловск", "old_name:en": "Scheglovsk", "old_name:ru": "Щегловск", "place": "city", "population": "549362", "population:date": "2023-01-01", "source:population": "wikipedia", "start_date": "1701", "wikidata": "Q6066", "wikipedia": "ru:Кемерово" }, "geometry": { "type": "Point", "coordinates": [ 86.0871213, 55.3550907 ] } },
{ "type": "Feature", "id": "node/711715624", "properties": { "@id": "node/711715624", "addr:country": "RU", "addr:postcode": "432000", "addr:region": "Ульяновская область", "admin_level": "4", "alt_name:tt": "Ульян", "capital": "4", "contact:website": "https://ulmeria.ru", "image": "https://upload.wikimedia.org/wikipedia/commons/a/a7/Ульяновск.jpg", "int_name": "Ul'yanovsk", "name": "Ульяновск", "name:ar": "أوليانوفسك", "name:be": "Ульянаўск", "name:ca": "Uliànovsk", "name:cs": "Uljanovsk", "name:cu": "Оулиꙗновьскъ", "name:cv": "Чӗмпӗр", "name:de": "Uljanowsk", "name:el": "Ουλιάνοφσκ", "name:en": "Ulyanovsk", "name:es": "Uliánovsk", "name:et": "Uljanovsk", "name:eu": "Ulianovsk", "name:fi": "Uljanovsk", "name:fr": "Oulianovsk", "name:hr": "Uljanovsk", "name:hy": "Ուլյանովսկ", "name:ja": "ウリヤノフスク", "name:ka": "ულიანოვსკი", "name:ko": "울리야놉스크", "name:lt": "Uljanovskas", "name:pl": "Uljanowsk", "name:ro": "Ulianovsk", "name:ru": "Ульяновск", "name:ru:word_stress": "Улья́новск", "name:sk": "Ulianovsk", "name:tt": "Сембер", "name:uk": "Ульяновськ", "name:zh": "乌里扬诺夫斯克", "name:zh-Hans": "乌里扬诺夫斯克", "name:zh-Hant": "烏里揚諾夫斯克", "official_status": "ru:город", "old_name": "Симби́рск; Синби́рск;", "place": "city", "population": "613334", "population:date": "2023", "start_date": "1648", "wikidata": "Q5627", "wikipedia": "ru:Ульяновск" }, "geometry": { "type": "Point", "coordinates": [ 48.403373, 54.3150278 ] } },
{ "type": "Feature", "id": "node/740732715", "properties": { "@id": "node/740732715", "admin_level": "4", "capital": "4", "contact:website": "https://gcheb.cap.ru", "int_name": "Cheboksary", "name": "Чебоксары", "name:ca": "Txeboksari", "name:cv": "Шупашкар", "name:de": "Tscheboksary", "name:en": "Cheboksary", "name:et": "Tšeboksarõ", "name:eu": "Txeboksary", "name:fr": "Tcheboksary", "name:hr": "Čeboksari", "name:ja": "チェボクサル", "name:ko": "체복사리", "name:lt": "Čeboksarai", "name:pl": "Czeboksary", "name:ro": "Ceboksarî", "name:ru": "Чебоксары", "name:ru:word_stress": "Чебокса́ры", "name:sk": "Čeboksary", "name:tt": "Чабаксар", "name:uk": "Чебоксари", "name:zh": "切博克萨雷", "name:zh-Hans": "切博克萨雷", "name:zh-Hant": "切博克薩雷", "official_status": "ru:город", "place": "city", "population": "496238", "population:date": "2023-01-01", "website": "https://gcheb.cap.ru", "wikidata": "Q5470", "wikipedia": "ru:Чебоксары" }, "geometry": { "type": "Point", "coordinates": [ 47.2449597, 56.1307195 ] } },
{ "type": "Feature", "id": "node/1168567868", "properties": { "@id": "node/1168567868", "addr:country": "RU", "admin_level": "4", "capital": "4", "contact:website": "https://www.vladikavkaz-osetia.ru", "ele": "692", "int_name": "Vladikavkaz", "name": "Владикавказ", "name:af": "Wladikafkaz", "name:ar": "فلاديقوقاز", "name:az": "Vladiqafqaz", "name:azb": "ولادی‌قفقاز", "name:be": "Уладзікаўказ", "name:be-tarask": "Уладзікаўказ", "name:ca": "Vladikavkaz", "name:ce": "БуритӀе", "name:cs": "Vladikavkaz", "name:de": "Wladikawkas", "name:el": "Βλαντικαβκάζ", "name:en": "Vladikavkaz", "name:eo": "Vladikavkaz", "name:es": "Vladicáucaso", "name:et": "Vladikavkaz", "name:eu": "Vladikavkaz", "name:fa": "ولادی‌قفقاز", "name:fr": "Vladikavkaz", "name:he": "ולדיקווקז", "name:hi": "व्लादिकाव्काज़", "name:hr": "Vladikavkaz", "name:hsb": "Wladikawkaz", "name:hu": "Vlagyikavkaz", "name:hy": "Վլադիկավկազ", "name:id": "Vladikavkaz", "name:it": "Vladikavkaz", "name:ja": "ウラジカフカス", "name:ka": "ვლადიკავკაზი", "name:kbd": "Тэрчкъалэ", "name:ko": "블라디캅카스", "name:la": "Vladicaucasia", "name:lbe": "КӀапӀкӀай", "name:lt": "Vladikaukazas", "name:lv": "Vladikaukāza", "name:ml": "വ്ലാഡികാവ്കാസ്", "name:os": "Дзæуджыхъæу", "name:os-Latn": "Dzæudžyqæu", "name:pl": "Władykaukaz", "name:pt": "Vladikavkaz", "name:ro": "Vladikavkaz", "name:ru": "Владикавказ", "name:ru:word_stress": "Владикавка́з", "name:sh": "Vladikavkaz", "name:sk": "Vladikavkaz", "name:sr": "Владикавказ", "name:tr": "Vladikavkaz", "name:uk": "Владикавказ", "name:ur": "ولادیقفقاز", "name:uz": "Vladikavkaz", "name:vi": "Vladikavkaz", "name:xmf": "ვლადიკავკაზი", "name:zh": "弗拉季高加索", "official_status": "ru:город", "place": "city", "population": "292886", "population:date": "2023-01-01", "wikidata": "Q5239", "wikipedia": "ru:Владикавказ" }, "geometry": { "type": "Point", "coordinates": [ 44.68211, 43.024593 ] } },
{ "type": "Feature", "id": "node/1457469393", "properties": { "@id": "node/1457469393", "addr:country": "RU", "addr:region": "Бурятия", "admin_level": "4", "capital": "4", "int_name": "Ulan-Ude", "name": "Улан-Удэ", "name:az": "Ulan Ude", "name:be": "Улан-Удэ", "name:be-tarask": "Улан-Удэ", "name:bxr": "Улаан-Үдэ", "name:ca": "Ulan-Udè", "name:ce": "Улан-Удэ", "name:cs": "Ulan-Ude", "name:de": "Ulan-Ude", "name:en": "Ulan-Ude", "name:et": "Ulan-Ude", "name:eu": "Ulan-Ude", "name:fr": "Oulan-Oude", "name:hr": "Ulan-Ude", "name:it": "Ulan-Udė", "name:ja": "ウラン・ウデ", "name:ka": "ულან-უდე", "name:ko": "울란우데", "name:la": "Udinium", "name:lt": "Ulan Udė", "name:mn": "Улаан-Үд", "name:nl": "Oelan-Oede", "name:os": "Улан-Удэ", "name:pl": "Ułan Ude", "name:ru": "Улан-Удэ", "name:ru:word_stress": "Ула́н-Удэ́", "name:sk": "Ulan-Ude", "name:uk": "Улан-Уде", "name:zh": "乌兰乌德", "name:zh-Hans": "乌兰乌德", "name:zh-Hant": "烏蘭烏德", "official_status": "ru:город", "old_name": "Верхнеудинск", "old_name:en": "Verkhneudinsk", "old_name:ru": "Верхнеудинск", "place": "city", "population": "436138", "population:date": "2023-01-01", "wikidata": "Q6816", "wikipedia": "ru:Улан-Удэ" }, "geometry": { "type": "Point", "coordinates": [ 107.5839105, 51.8357841 ] } },
{ "type": "Feature", "id": "node/1522654732", "properties": { "@id": "node/1522654732", "addr:country": "RU", "admin_level": "4", "capital": "4", "contact:website": "https://www.grozmer.ru", "image": "https://upload.wikimedia.org/wikipedia/commons/f/f4/Мечеть_\"Сердце_Чечни\".jpg", "int_name": "Grozny", "name": "Грозный", "name:ar": "غروزني", "name:av": "Сунж-хъала", "name:az": "Qroznı", "name:ca": "Grozni", "name:ce": "Соьлжа-ГӀала", "name:cs": "Grozný", "name:de": "Grosny", "name:en": "Grozny", "name:es": "Grozni", "name:et": "Groznõi", "name:eu": "Grozny", "name:fr": "Grozny", "name:hi": "ग्रोज़नी", "name:hr": "Grozni", "name:hsb": "Groznyj", "name:hy": "Գրոզնի", "name:ka": "გროზნო", "name:kbd": "Грознэ", "name:ku": "Grosnî", "name:lt": "Groznas", "name:ml": "ഗ്രോസ്നി", "name:nl": "Grozny", "name:os": "Грозна", "name:pl": "Grozny", "name:ru": "Грозный", "name:ru:word_stress": "Гро́зный", "name:sk": "Groznyj", "name:sr": "Грозни", "name:sv": "Groznyj", "name:uk": "Грозний", "name:uz": "Grozniy", "name:zh": "格罗兹尼", "name:zh-Hans": "格罗兹尼", "name:zh-Hant": "格羅茲尼", "official_status": "ru:город", "place": "city", "population": "331402", "population:date": "2023-01-01", "start_date": "1818", "wikidata": "Q5196", "wikipedia": "ru:Грозный" }, "geometry": { "type": "Point", "coordinates": [ 45.6934308, 43.3197031 ] } },
{ "type": "Feature", "id": "node/1588233141", "properties": { "@id": "node/1588233141", "addr:country": "RU", "admin_level": "4", "capital": "4", "contact:website": "https://абакан.рф", "int_name": "Abakan", "name": "Абакан", "name:af": "Abakan", "name:ar": "أباكان", "name:be": "Абакан", "name:ca": "Abakan", "name:cs": "Abakan", "name:da": "Abakan", "name:de": "Abakan", "name:el": "Αμπακάν", "name:en": "Abakan", "name:eo": "Abakan", "name:es": "Abakán", "name:et": "Abakan", "name:fa": "آباکان", "name:fi": "Abakan", "name:fr": "Abakan", "name:ga": "Abakan", "name:gl": "Abakán - Абакан", "name:hr": "Abakan", "name:hu": "Abakan", "name:hy": "Աբական", "name:id": "Abakan", "name:io": "Abakan", "name:it": "Abakan", "name:ja": "アバカン", "name:ko": "아바칸", "name:lb": "Abakan", "name:lt": "Abakanas", "name:lv": "Abakana", "name:nl": "Abakan", "name:nn": "Abakan", "name:no": "Abakan", "name:pa": "ਅਬਾਕਾਨ", "name:pl": "Abakan", "name:pnb": "اباکان", "name:pt": "Abakan", "name:ro": "Abakan", "name:roa-rup": "Abakan", "name:ru": "Абакан", "name:ru:word_stress": "Абака́н", "name:sh": "Abakan", "name:sk": "Abakan", "name:sl": "Abakan", "name:sv": "Abakan", "name:tk": "Abakan", "name:tl": "Abakan", "name:tr": "Abakan", "name:uk": "Абакан", "name:vep": "Abakan", "name:vi": "Abakan", "name:war": "Abakan", "name:zh": "阿巴坎", "official_status": "ru:город", "place": "city", "population": "185348", "population:date": "2023-01-01", "source:population": "http://www.gks.ru/free_doc/doc_2019/bul_dr/mun_obr2019.rar", "wikidata": "Q875", "wikipedia": "ru:Абакан" }, "geometry": { "type": "Point", "coordinates": [ 91.4406019, 53.72068 ] } },
{ "type": "Feature", "id": "node/1643102325", "properties": { "@id": "node/1643102325", "capital": "4", "name": "Благовещенск", "name:ca": "Blagovésxensk", "name:cs": "Blagověščensk", "name:de": "Blagoweschtschensk", "name:en": "Blagoveshchensk", "name:es": "Blagovéshchensk", "name:et": "Blagoveštšensk", "name:eu": "Blagovextxensk", "name:fr": "Blagovechtchensk", "name:hi": "ब्लागावेश्चेंस्क", "name:hr": "Blagovješčensk", "name:hu": "Blagovescsenszk", "name:it": "Blagoveščensk", "name:ja": "ブラゴヴェシチェンスク", "name:ko": "블라고베셴스크", "name:lt": "Blagoveščenskas", "name:mnc": "ᡥᠠᡳ᠌ᠯᠠᠨ ᠪᠣᠣ", "name:pl": "Błagowieszczeńsk", "name:pt": "Blagoveschensk", "name:ro": "Blagoveșcensk", "name:ru": "Благовещенск", "name:sk": "Blagoveščensk", "name:uk": "Благовєщенськ", "name:zh": "海兰泡", "name:zh-Hans": "海兰泡", "name:zh-Hant": "海蘭泡", "official_name:zh": "布拉戈维申斯克", "official_name:zh-Hans": "布拉戈维申斯克", "official_name:zh-Hant": "布拉戈維申斯克", "official_status": "ru:город", "place": "city", "population": "225787", "population:date": "2021-01-01", "start_date": "1856", "wikidata": "Q6934", "wikipedia": "ru:Благовещенск" }, "geometry": { "type": "Point", "coordinates": [ 127.5337378, 50.2600417 ] } },
{ "type": "Feature", "id": "node/1679639726", "properties": { "@id": "node/1679639726", "addr:district": "городской округ Ижевск", "admin_level": "4", "alt_name:cs": "Ižkar", "alt_name:en": "Izhkar", "capital": "4", "int_name": "Izhevsk", "is_capital": "state", "name": "Ижевск", "name:ar": "إيجيفسك", "name:ca": "Ijevsk", "name:cs": "Iževsk", "name:cv": "Ишкар", "name:da": "Izjevsk", "name:de": "Ischewsk", "name:en": "Izhevsk", "name:es": "Izhevsk", "name:et": "Iževsk", "name:eu": "Izhevsk", "name:fi": "Iževsk", "name:fr": "Ijevsk", "name:he": "איז'בסק", "name:hr": "Iževsk", "name:hu": "Izsevszk", "name:ja": "イジェフスク", "name:ko": "이젭스크", "name:lt": "Iževskas", "name:lv": "Iževska", "name:pl": "Iżewsk", "name:ro": "Ijevsk", "name:ru": "Ижевск", "name:sk": "Iževsk", "name:tt": "Ижау", "name:udm": "Иж кар", "name:uk": "Іжевськ", "name:zh": "伊热夫斯克", "name:zh-Hans": "伊热夫斯克", "name:zh-Hant": "伊熱夫斯克", "official_status": "ru:город", "old_name": "Усти́нов", "old_name:cs": "Ustinov", "old_name:en": "Ustinov", "place": "city", "population": "645183", "population:date": "2022-01-01", "start_date": "1760", "wikidata": "Q5426", "wikipedia": "ru:Ижевск" }, "geometry": { "type": "Point", "coordinates": [ 53.2094166, 56.866557 ] } },
{ "type": "Feature", "id": "node/2893369031", "properties": { "@id": "node/2893369031", "addr:city": "Магадан", "addr:country": "RU", "addr:region": "Магаданская область", "capital": "4", "int_name": "Magadan", "name": "Магадан", "name:ar": "ماغادان", "name:be": "Магадан", "name:bg": "Магадан", "name:ca": "Magadan", "name:de": "Magadan", "name:en": "Magadan", "name:es": "Magadán", "name:et": "Magadan", "name:fa": "ماگادان", "name:fr": "Magadan", "name:hr": "Magadan", "name:ja": "マガダン", "name:ko": "마가단", "name:lt": "Magadanas", "name:pl": "Magadan", "name:ru": "Магадан", "name:sk": "Magadan", "name:sl": "Magadan", "name:ug": "ماگادان", "name:uk": "Магадан", "name:ur": "ماگادان", "name:zh-Hans": "马加丹", "name:zh-Hant": "馬加丹", "official_status": "ru:город", "place": "city", "population": "89834", "population:date": "2023-10-01", "wikidata": "Q7968", "wikipedia": "ru:Магадан" }, "geometry": { "type": "Point", "coordinates": [ 150.7988617, 59.5604768 ] } },
{ "type": "Feature", "id": "node/4736064990", "properties": { "@id": "node/4736064990", "addr:country": "RU", "addr:region": "Астраханская область", "admin_level": "4", "capital": "4", "contact:website": "https://www.astrgorod.ru", "int_name": "Astrakhan", "name": "Астрахань", "name:af": "Astrachan", "name:ar": "أستراخان", "name:az": "Həştərxan", "name:ba": "Әстрәхән", "name:be": "Астрахань", "name:bg": "Астрахан", "name:bs": "Astrahan", "name:ca": "Àstrakhan", "name:cs": "Astrachaň", "name:cv": "Аҫтӑрхан", "name:da": "Astrakan", "name:de": "Astrachan", "name:diq": "Astrahan", "name:el": "Άστραχαν", "name:en": "Astrakhan", "name:eo": "Astraĥan", "name:es": "Astracán", "name:et": "Astrahan", "name:eu": "Astrakhan", "name:fa": "آستراخان", "name:fi": "Astrahan", "name:fr": "Astrakhan", "name:gl": "Astrakhan", "name:he": "אסטרחן", "name:hi": "आस्त्राख़ान", "name:hr": "Astrahan", "name:hsb": "Astrachań", "name:hu": "Asztrahán", "name:hy": "Աստրախան", "name:id": "Astrakhan", "name:is": "Astrakan", "name:it": "Astrachan'", "name:ja": "アストラハン", "name:ka": "ასტრახანი", "name:kbd": "Ащтэрхъан", "name:kk": "Астрахан", "name:ko": "아스트라한", "name:ku": "Astraxan", "name:la": "Astrachanum", "name:lbe": "Ашттархан", "name:lt": "Astrachanė", "name:lv": "Astrahaņa", "name:mk": "Астрахан", "name:ml": "അസ്ട്രഖാൻ", "name:mzn": "آستراخان", "name:nl": "Astrachan", "name:nn": "Astrakhan", "name:no": "Astrakhan", "name:pl": "Astrachań", "name:pnb": "آسٹراہان", "name:pt": "Astracã", "name:ro": "Astrahan", "name:ru": "Астрахань", "name:ru:word_stress": "А́страхань", "name:sah": "Астархаан", "name:sk": "Astrachán", "name:sl": "Astrahan", "name:sr": "Астрахан", "name:sv": "Astrachan", "name:tl": "Astrakhan", "name:tr": "Astrahan", "name:tt": "Әстерхан", "name:ug": "Astiraxan", "name:uk": "Астрахань", "name:ur": "استراخان", "name:vep": "Astrahan'", "name:vi": "Astrakhan", "name:war": "Astrakhan", "name:zh": "阿斯特拉罕", "official_status": "ru:город", "old_name": "Хаджи Тархан", "place": "city", "population": "468842", "population:date": "2023-01-01", "start_date": "1558", "wikidata": "Q3927", "wikipedia": "ru:Астрахань" }, "geometry": { "type": "Point", "coordinates": [ 48.0326203, 46.3498308 ] } },
{ "type": "Feature", "id": "node/54", "properties": { "@id": "node/54", "admin_level": "3", "capital": "3", "name": "Новосибирск", "name:ar": "نوفوسيبيرسك", "name:az": "Novosibirsk", "name:be": "Новасібірск", "name:ca": "Novossibirsk", "name:cs": "Novosibirsk", "name:da": "Novosibirsk", "name:de": "Nowosibirsk", "name:el": "Νοβοσιμπίρσκ", "name:en": "Novosibirsk", "name:es": "Novosibirsk", "name:et": "Novosibirsk", "name:eu": "Novosibirsk", "name:fi": "Novosibirsk", "name:fr": "Novossibirsk", "name:he": "נובוסיבירסק", "name:hi": "नोवोसिबिर्स्क", "name:hr": "Novosibirsk", "name:ja": "ノヴォシビルスク", "name:kk": "Новосібір", "name:kn": "ನೋವೋಸಿಬಿರ್ಸ್ಕ್", "name:ko": "노보시비르스크", "name:lt": "Novosibirskas", "name:lv": "Novosibirska", "name:oc": "Novosibirsk", "name:pl": "Nowosybirsk", "name:pt": "Novosibirsk", "name:ro": "Novosibirsk", "name:ru": "Новосибирск", "name:ru:word_stress": "Новосиби́рск", "name:sk": "Novosibirsk", "name:sl": "Novosibirsk", "name:uk": "Новосибірськ", "name:uz": "Novosibirsk", "name:zh-Hans": "新西伯利亚", "name:zh-Hant": "新西伯利亞", "official_status": "ru:город", "old_name": "Ново-Николаевск", "old_name:en": "Novo-Nikolayevsk", "old_name:fr": "Novonikolaïevsk", "old_name:fr:1893-1925": "Novonikolaïevsk", "old_name:ru": "Ново-Николаевск", "place": "city", "population": "1635338", "population:date": "2023-01-01", "source:name:oc": "Lo Congrès", "source:population": "wikipedia", "start_date": "1893", "wikidata": "Q883", "wikipedia": "ru:Новосибирск" }, "geometry": { "type": "Point", "coordinates": [ 82.9226887, 55.0288307 ] } },
{ "type": "Feature", "id": "node/27490597", "properties": { "@id": "node/27490597", "admin_level": "3", "alt_name:vi": "Sankt-Peterburg", "capital": "3", "int_name": "Sankt-Peterburg", "loc_name": "Питер", "name": "Санкт-Петербург", "name:ab": "Санқт-Петербург", "name:ar": "سانت بطرسبرغ", "name:ast": "San Petersburgu", "name:be": "Санкт-Пецярбург", "name:be-tarask": "Санкт-Пецярбург", "name:ca": "Sant Petersburg", "name:cs": "Petrohrad", "name:da": "Sankt Petersborg", "name:de": "Sankt Petersburg", "name:dsb": "Sankt Petersburg", "name:el": "Αγία Πετρούπολη", "name:en": "Saint Petersburg", "name:eo": "Sankt-Peterburgo", "name:es": "San Petersburgo", "name:et": "Peterburi", "name:etymology:wikidata": "Q33923", "name:eu": "San Petersburgo", "name:fa": "سن پترزبورگ", "name:fi": "Pietari", "name:fr": "Saint-Pétersbourg", "name:fy": "Sint-Petersburch", "name:ga": "Cathair Pheadair", "name:gl": "San Petersburgo", "name:he": "סנקט פטרבורג", "name:hi": "सेंट पीटर्सबर्ग", "name:hr": "Sankt Peterburg", "name:hsb": "Pětrohród", "name:hu": "Szentpétervár", "name:hy": "Սանկտ Պետերբուրգ", "name:it": "San Pietroburgo", "name:ja": "サンクト ペテルブルク", "name:ka": "სანქტ-პეტერბურგი", "name:kn": "ಸಂಕ್ತ್ ಪೇಟೆರ್ಬುಗ್", "name:ko": "상트페테르부르크", "name:lb": "Sankt Péitersbuerg", "name:lt": "Sankt Peterburgas", "name:lv": "Sanktpēterburga", "name:ml": "സെന്റ് പീറ്റേഴ്സ്ബർഗ്", "name:nb": "Sankt Petersburg", "name:nl": "Sint-Petersburg", "name:oc": "Sant Petersborg", "name:os": "Бетъырбух", "name:pl": "Sankt Petersburg", "name:pt": "São Petersburgo", "name:ro": "Sankt Petersburg", "name:ru": "Санкт-Петербург", "name:sk": "Petrohrad", "name:sl": "Sankt Peterburg", "name:sr": "Санкт Петербург", "name:sv": "Sankt Petersburg", "name:te": "సెయింట్ పీటర్స్‌బర్గ్", "name:tzl": "Sant Pairbuerg", "name:uk": "Санкт-Петербург", "name:vi": "Xanh Pê-téc-bua", "name:zh": "圣彼得堡", "name:zh-Hans": "圣彼得堡", "name:zh-Hant": "聖彼得堡", "official_status": "ru:город", "old_alt_name:vi": "Bỉ Đắc", "old_name:1914-08-31--1924-01-26": "Петроград", "old_name:1924-01-26--1991-09-06": "Ленинград", "old_name:ar": "لينينغراد;بيتروغراد", "old_name:ca:1914-08-31--1924-01-26": "Petrograd", "old_name:ca:1924-01-26--1991-09-06": "Leningrad", "old_name:cs:1924-01-26--1991-09-06": "Leningrad", "old_name:en:1914-08-31--1924-01-26": "Petrograd", "old_name:en:1924-01-26--1991-09-06": "Leningrad", "old_name:eo": "Petrogrado;Leningrado", "old_name:fr": "Pétrograd;Léningrad", "old_name:hr": "Petrograd;Lenjingrad", "old_name:ko": "페트로그라드;레닌그라드", "old_name:os": "Петроград;Ленинград", "old_name:sv": "Petrograd;Leningrad", "old_name:vi": "Petrograd;Leningrad", "place": "city", "population": "5600044", "population:date": "2023", "short_name": "СПб", "source:name:oc": "Lo Congrès", "watch:Aleksandr_Dezhin": "yes", "website": "https://www.gov.spb.ru/", "wikidata": "Q656", "wikipedia": "ru:Санкт-Петербург" }, "geometry": { "type": "Point", "coordinates": [ 30.316229, 59.938732 ] } },
{ "type": "Feature", "id": "node/27503886", "properties": { "@id": "node/27503886", "admin_level": "4", "capital": "3", "ele": "40", "loc_name": "Владик", "name": "Владивосток", "name:ar": "فلاديفوستوك", "name:be": "Уладзівасток", "name:ca": "Vladivostok", "name:cs": "Vladivostok", "name:da": "Vladivostok", "name:de": "Wladiwostok", "name:en": "Vladivostok", "name:es": "Vladivostok", "name:et": "Vladivostok", "name:eu": "Vladivostok", "name:fi": "Vladivostok", "name:fr": "Vladivostok", "name:hi": "व्लादिवोस्तोक", "name:hr": "Vladivostok", "name:hu": "Vlagyivosztok", "name:it": "Vladivostok", "name:ja": "ウラジオストク", "name:kn": "ವ್ಲಾದಿವೋಸ್ತೊಕ", "name:ko": "블라디보스토크", "name:lt": "Vladivostokas", "name:mnc": "ᡥᠠᡳ᠌ᡧᡝᠨᠸᡝᡳ", "name:nl": "Vladivostok", "name:pl": "Władywostok", "name:ro": "Vladivostok", "name:ru": "Владивосток", "name:ru:word_stress": "Владивосто́к", "name:sk": "Vladivostok", "name:sl": "Vladivostok", "name:sv": "Vladivostok", "name:uk": "Владивосток", "name:zh": "海参崴", "name:zh-Hans": "海参崴", "name:zh-Hant": "海參崴", "official_name:zh": "符拉迪沃斯托克", "official_name:zh-Hans": "符拉迪沃斯托克", "official_name:zh-Hant": "符拉迪沃斯託克", "official_status": "ru:город", "place": "city", "population": "597237", "population:date": "2023-01-01", "population:source": "https://ru.wikipedia.org/wiki/Владивосток", "start_date": "1860", "website": "http://www.vlc.ru/", "wikidata": "Q959", "wikipedia": "ru:Владивосток" }, "geometry": { "type": "Point", "coordinates": [ 131.8855768, 43.1150678 ] } },
{ "type": "Feature", "id": "node/27503892", "properties": { "@id": "node/27503892", "addr:country": "RU", "addr:region": "Свердловская область", "admin_level": "3", "alt_name:ar": "ييكاتيرينبرج", "alt_name:en": "Ekaterinburg", "capital": "3", "contact:phone": "+7 343 3824528", "contact:vk": "https://vk.com/ekadm", "contact:website": "https://екатеринбург.рф", "int_name": "Yekaterinburg", "loc_name": "Ёбург", "name": "Екатеринбург", "name:ar": "يكاترينبورغ", "name:az": "Yekaterinburq", "name:ba": "Кәтринбур", "name:ca": "Iekaterinburg", "name:cs": "Jekatěrinburg", "name:cv": "Екатеринбург", "name:de": "Jekaterinburg", "name:en": "Yekaterinburg", "name:eo": "Jekaterinburgo", "name:es": "Ekaterimburgo", "name:et": "Jekaterinburg", "name:eu": "Jekaterinburg", "name:fi": "Jekaterinburg", "name:fr": "Iekaterinbourg", "name:he": "יקטרינבורג", "name:hi": "येकातेरिनबुर्ग", "name:hr": "Jekaterinburg", "name:hu": "Jekatyerinburg", "name:is": "Katrínarborg", "name:ja": "エカテリンブルク", "name:kk": "Екатеринбург", "name:kn": "ಯೇಕಾತೇರಿನ್ಬುರ್ಗ್", "name:ko": "예카테린부르크", "name:ku": "Yekaterînburg", "name:lt": "Jekaterinburgas", "name:nl": "Jekaterinenburg", "name:oc": "Yekaterinburg", "name:pl": "Jekaterynburg", "name:pt": "Ecaterimburgo", "name:ro": "Ekaterinburg", "name:ru": "Екатеринбург", "name:ru:word_stress": "Екатеринбу́рг", "name:sk": "Jekaterinburg", "name:sl": "Jekaterinburg", "name:tt": "Екатеринбург", "name:uk": "Єкатеринбург", "name:uz": "Yekaterinburg", "name:zh": "叶卡捷琳堡", "name:zh-Hans": "叶卡捷琳堡", "name:zh-Hant": "葉卡捷琳堡", "note": "why capital=yes and admin_level=3? see http://wiki.openstreetmap.org/wiki/Proposed_features/capital#Combination_with_admin_level", "official_status": "ru:город", "old_name:cs": "Sverdlovsk", "old_name:en": "Sverdlovsk", "old_name:eo": "Sverdlovsko", "old_name:ru": "Свердловск", "old_name:sk": "Sverdlovsk", "old_name:sl": "Sverdlovsk", "place": "city", "population": "1539371", "population:date": "2023-01-01", "short_name": "Екб", "source:name:oc": "Lo Congrès", "start_date": "1723-11-18", "wikidata": "Q887", "wikipedia": "ru:Екатеринбург" }, "geometry": { "type": "Point", "coordinates": [ 60.60825, 56.839104 ] } },
{ "type": "Feature", "id": "node/27505889", "properties": { "@id": "node/27505889", "addr:district": "городской округ Нижний Новгород", "addr:region": "Нижегородская область", "admin_level": "3", "capital": "3", "contact:website": "http://нижнийновгород.рф", "int_name": "Nizhny Novgorod", "loc_name": "Нижний", "name": "Нижний Новгород", "name:ar": "نيجني نوفغورود", "name:az": "Nijni Novqorod", "name:ba": "Түбәнге Новгород", "name:bg": "Нижни Новгород", "name:ca": "Nijni Nóvgorod", "name:ce": "Нижни Новгород", "name:chm": "Угарман", "name:cs": "Nižnij Novgorod", "name:cv": "Чулхула", "name:de": "Nischni Nowgorod", "name:el": "Νίζνι Νόβγκοροντ", "name:en": "Nizhny Novgorod", "name:es": "Nizhni Novgorod", "name:et": "Nižni Novgorod", "name:eu": "Nizhni Novgorod", "name:fi": "Nižni Novgorod", "name:fr": "Nijni Novgorod", "name:hi": "निज्नी नॊव्गोरोद", "name:hr": "Nižnji Novgorod", "name:hsb": "Nižny Nowgorod", "name:hu": "Nyizsnij Novgorod", "name:hy": "Նիժնի Նովգորոդ", "name:it": "Niznij Novgorod", "name:ja": "ニジニ・ノヴゴロド", "name:ka": "ნიჟნი-ნოვგოროდი", "name:kk": "Төменгі Новгород", "name:kn": "ನಿಜ್ನೀ ನೊವ್ಗೋರೋದ್", "name:ko": "니즈니노브고로드", "name:lt": "Žemutinis Naugardas", "name:nb": "Nizjnij Novgorod", "name:nl": "Nizjni Novgorod", "name:oc": "Nizhniy Novgorod", "name:os": "Дæллаг Новгород", "name:pl": "Niżny Nowogród", "name:pt": "Nijni Novgorod", "name:ro": "Nijni Novgorod", "name:ru": "Нижний Новгород", "name:ru:word_stress": "Ни́жний Но́вгород", "name:sk": "Nižný Novgorod", "name:sl": "Nižni Novgorod", "name:sr": "Нижњи Новгород", "name:tt": "Нижгар", "name:uk": "Нижній Новгород", "name:uz": "Nijniy Novgorod", "name:zh-Hans": "下诺夫哥罗德", "name:zh-Hant": "下諾夫哥羅德", "official_name": "город Нижний Новгород", "official_status": "ru:город", "old_name:1932-10-07--1990-10-22": "Горький", "old_name:en": "Gorky", "place": "city", "population": "1213477", "population:date": "2023-01-01", "source:name:oc": "Lo Congrès", "start_date": "1221", "wikidata": "Q891", "wikipedia": "ru:Нижний Новгород" }, "geometry": { "type": "Point", "coordinates": [ 44.0051395, 56.3264816 ] } },
{ "type": "Feature", "id": "node/160569651", "properties": { "@id": "node/160569651", "addr:country": "RU", "addr:district": "городской округ Ростов-на-Дону", "addr:region": "Ростовская область", "admin_level": "6", "alt_name:it": "Rostov", "alt_name:ko": "로스티우", "alt_name:ru": "Ростов", "alt_name:uk": "Ростів", "capital": "3", "contact:email": "rostov@donland.ru", "contact:ok": "https://ok.ru/group/59354403832023", "contact:phone": "+7 863 2409184", "contact:telegram": "Rostov_Gorod_Admin", "contact:vk": "https://vk.com/public185985289", "contact:website": "https://rostov-gorod.ru", "int_name": "Rostov-na-Donu", "name": "Ростов-на-Дону", "name:af": "Rostof aan die Don", "name:ar": "روستوف-نا-دونو", "name:az": "Rostov-na-Donu", "name:be": "Растоў-на-Доне", "name:be-tarask": "Растоў-на-Доне", "name:br": "Rostov-an-Don", "name:ca": "Rostov del Don", "name:cs": "Rostov na Donu", "name:cu": "Растовъ на Донѣ", "name:cv": "Тан-ҫи-Ростов", "name:da": "Rostov ved Don", "name:de": "Rostow am Don", "name:el": "Ροστόφ επί του Ντον", "name:en": "Rostov-on-Don", "name:es": "Rostov del Don", "name:et": "Rostov Doni ääres", "name:eu": "Rostov Don", "name:fa": "روستوف-نا-دونو", "name:fi": "Rostov-na-Donu", "name:fr": "Rostov-sur-le-Don", "name:he": "רוסטוב על הדון", "name:hi": "रोस्तोव", "name:hr": "Rostov na Donu", "name:hsb": "Rostow nad Donom", "name:hu": "Rosztov", "name:hy": "Դոնի Ռոստով", "name:it": "Rostov sul Don", "name:ja": "ロストフ・ナ・ドヌ", "name:ka": "დონის როსტოვი", "name:kbd": "Ростов-на-Дону", "name:kn": "ರೋಸ್ತೊವ್", "name:ko": "로스토프나도누", "name:krc": "Дондагъы Ростов", "name:ku": "Rostov-na-Donû", "name:la": "Rostovia ad Tanaim", "name:lt": "Rostovas prie Dono", "name:lv": "Rostova pie Donas", "name:ml": "റോസ്തോവ്", "name:nl": "Rostov aan de Don", "name:oc": "Rostov de Dòn", "name:pl": "Rostów nad Donem", "name:pt": "Rostov do Don", "name:ro": "Rostov-pe-Don", "name:ru": "Ростов-на-Дону", "name:ru:word_stress": "Росто́в на Дону́", "name:sk": "Rostov nad Donom", "name:sl": "Rostov na Donu", "name:sr": "Ростов на Дону", "name:tr": "Rostov", "name:tt": "Дондагы Ростов", "name:uk": "Ростов-на-Дону", "name:uz": "Rostov-Don", "name:vi": "Rostov trên sông Đông", "name:zh": "顿河畔罗斯托夫", "name:zh-Hans": "顿河畔罗斯托夫", "name:zh-Hant": "頓河畔羅斯托夫", "official_status": "ru:город", "place": "city", "population": "1135968", "population:date": "2023-01-01", "short_name": "РНД", "source:name:oc": "Lo Congrès", "start_date": "1749", "wikidata": "Q908", "wikipedia": "ru:Ростов-на-Дону" }, "geometry": { "type": "Point", "coordinates": [ 39.7096061, 47.2216548 ] } },
{ "type": "Feature", "properties": { "id": null, "@id": null, "addr:city": null, "addr:country": null, "addr:district": null, "addr:postcode": null, "addr:region": null, "addr:region:ru": null, "addr:region:uk": null, "admin_level": null, "alt_name": null, "alt_name:ar": null, "alt_name:be": null, "alt_name:ca": null, "alt_name:cs": null, "alt_name:de": null, "alt_name:en": null, "alt_name:fi": null, "alt_name:hr": null, "alt_name:it": null, "alt_name:kbd": null, "alt_name:ko": null, "alt_name:mdf": null, "alt_name:myv": null, "alt_name:ru": null, "alt_name:sk": null, "alt_name:sl": null, "alt_name:tr": null, "alt_name:tt": null, "alt_name:uk": null, "alt_name:vi": null, "alt_name:zh": null, "alt_name:zh-Hans": null, "alt_name:zh-Hant": null, "capital": null, "contact:email": null, "contact:facebook": null, "contact:instagram": null, "contact:ok": null, "contact:phone": null, "contact:rutube": null, "contact:telegram": null, "contact:twitter": null, "contact:vk": null, "contact:website": null, "contact:youtube": null, "ele": null, "flag": null, "heritage": null, "heritage:operator": null, "image": null, "int_name": null, "is_capital": null, "is_in:country": null, "is_in:country_code": null, "katotth": null, "koatuu": null, "loc_name": null, "name": null, "name:ab": null, "name:ady": null, "name:af": null, "name:ar": null, "name:ast": null, "name:av": null, "name:avk": null, "name:az": null, "name:az-cyr": null, "name:azb": null, "name:ba": null, "name:be": null, "name:be-tarask": null, "name:bg": null, "name:bn": null, "name:br": null, "name:bs": null, "name:bxr": null, "name:ca": null, "name:ce": null, "name:ceb": null, "name:chm": null, "name:ckb": null, "name:crh": null, "name:crh-cyr": null, "name:cs": null, "name:csb": null, "name:cu": null, "name:cv": null, "name:cy": null, "name:da": null, "name:dar": null, "name:de": null, "name:diq": null, "name:dsb": null, "name:el": null, "name:en": null, "name:eo": null, "name:es": null, "name:et": null, "name:etymology:wikidata": null, "name:eu": null, "name:fa": null, "name:fi": null, "name:fr": null, "name:full": null, "name:fy": null, "name:ga": null, "name:gag": null, "name:gl": null, "name:ha": null, "name:he": null, "name:hi": null, "name:hr": null, "name:hsb": null, "name:hu": null, "name:hy": null, "name:ia": null, "name:id": null, "name:io": null, "name:is": null, "name:it": null, "name:ja": null, "name:jv": null, "name:ka": null, "name:kbd": null, "name:kk": null, "name:kk-Latn": null, "name:kl": null, "name:kn": null, "name:ko": null, "name:koi": null, "name:krc": null, "name:krl": null, "name:ku": null, "name:kum": null, "name:kv": null, "name:ky": null, "name:kz": null, "name:la": null, "name:lad": null, "name:lb": null, "name:lbe": null, "name:lez": null, "name:lmo": null, "name:lt": null, "name:lv": null, "name:mdf": null, "name:mhr": null, "name:min": null, "name:mis": null, "name:mk": null, "name:ml": null, "name:mn": null, "name:mnc": null, "name:mr": null, "name:mrj": null, "name:ms": null, "name:myv": null, "name:mzn": null, "name:nah": null, "name:nb": null, "name:nl": null, "name:nn": null, "name:no": null, "name:oc": null, "name:os": null, "name:os-Latn": null, "name:pa": null, "name:pcd": null, "name:pl": null, "name:pnb": null, "name:pnt": null, "name:prefix": null, "name:pt": null, "name:qu": null, "name:ro": null, "name:roa-rup": null, "name:ru": null, "name:ru:word_stress": null, "name:rue": null, "name:rut": null, "name:sah": null, "name:scn": null, "name:sco": null, "name:se": null, "name:sh": null, "name:sk": null, "name:sl": null, "name:sms": null, "name:sr": null, "name:sr-Latn": null, "name:sty": null, "name:sv": null, "name:sw": null, "name:szl": null, "name:ta": null, "name:tab": null, "name:te": null, "name:tg": null, "name:th": null, "name:tk": null, "name:tl": null, "name:tr": null, "name:tt": null, "name:tt-lat": null, "name:tum": null, "name:tyv": null, "name:tzl": null, "name:udm": null, "name:ug": null, "name:uk": null, "name:ur": null, "name:uz": null, "name:vep": null, "name:vi": null, "name:vo": null, "name:war": null, "name:wo": null, "name:wuu": null, "name:xal": null, "name:xmf": null, "name:yi": null, "name:yue": null, "name:zh": null, "name:zh-Hans": null, "name:zh-Hant": null, "note": null, "official_name": null, "official_name:uk": null, "official_name:zh": null, "official_name:zh-Hans": null, "official_name:zh-Hant": null, "official_status": null, "okato:user": null, "oktmo:user": null, "old_alt_name:vi": null, "old_name": null, "old_name:1255-1946": null, "old_name:1589-1925": null, "old_name:1882-1905": null, "old_name:1882-1905:cs": null, "old_name:1882-1905:en": null, "old_name:1882-1905:ru": null, "old_name:1905-1946": null, "old_name:1905-1946:cs": null, "old_name:1905-1946:en": null, "old_name:1905-1946:ja": null, "old_name:1905-1946:ru": null, "old_name:1905-1946:zh": null, "old_name:1905-1946:zh-Hans": null, "old_name:1905-1946:zh-Hant": null, "old_name:1914-08-31--1924-01-26": null, "old_name:1924-01-26--1991-09-06": null, "old_name:1925-1961": null, "old_name:1931-11-20--1990-07-16": null, "old_name:1932-10-07--1990-10-22": null, "old_name:1935-01-27--1991-01-25": null, "old_name:ar": null, "old_name:ca:1914-08-31--1924-01-26": null, "old_name:ca:1924-01-26--1991-09-06": null, "old_name:ca:1925-1961": null, "old_name:chm": null, "old_name:cs": null, "old_name:cs:1255-1946": null, "old_name:cs:1589-1925": null, "old_name:cs:1924-01-26--1991-09-06": null, "old_name:de": null, "old_name:de:1255-1946": null, "old_name:de:1589-1925": null, "old_name:de:1925-1961": null, "old_name:de:1935-01-27--1991-01-25": null, "old_name:en": null, "old_name:en:1255-1946": null, "old_name:en:1589-1925": null, "old_name:en:1914-08-31--1924-01-26": null, "old_name:en:1924-01-26--1991-09-06": null, "old_name:en:1925-1961": null, "old_name:eo": null, "old_name:eo:1255-1946": null, "old_name:es:1925-1961": null, "old_name:fi": null, "old_name:fr": null, "old_name:fr:1255-1946": null, "old_name:fr:1589-1925": null, "old_name:fr:1893-1925": null, "old_name:fr:1925-1961": null, "old_name:hr": null, "old_name:hr:1589-1925": null, "old_name:hr:1925-1961": null, "old_name:it:1255-1946": null, "old_name:it:1589-1925": null, "old_name:it:1925-1961": null, "old_name:ja:1255-1946": null, "old_name:ko": null, "old_name:ko:1589-1925": null, "old_name:ko:1925-1961": null, "old_name:la:1255-1946": null, "old_name:lt:1255-1946": null, "old_name:nl:1255-1946": null, "old_name:os": null, "old_name:pl:1255-1946": null, "old_name:pl:1946-2023": null, "old_name:ru": null, "old_name:ru:1255-1946": null, "old_name:sk": null, "old_name:sk:1255-1946": null, "old_name:sl": null, "old_name:sr-Latn:1925-1961": null, "old_name:sr:1925-1961": null, "old_name:sv": null, "old_name:tt": null, "old_name:udm": null, "old_name:vi": null, "old_name:vi:1589-1925": null, "old_name:vi:1925-1961": null, "old_name:zh:1255-1946": null, "place": null, "population": null, "population:date": null, "population:source": null, "postal_code": null, "reg_name": null, "short_name": null, "source": null, "source:name": null, "source:name:br": null, "source:name:oc": null, "source:population": null, "source:url": null, "sqkm": null, "start_date": null, "start_date:old_name": null, "watch:Aleksandr_Dezhin": null, "website": null, "wikidata": null, "wikimedia_commons": null, "wikipedia": null, "wikipedia:en": null, "wikipedia:pl": null, "wikipedia:ru": null, "wikipedia:uk": null }, "geometry": { "type": "Point", "coordinates": [ 37.623870515468916, 55.748094271800142 ] } },
{ "type": "Feature", "properties": { "id": null, "@id": null, "addr:city": null, "addr:country": null, "addr:district": null, "addr:postcode": null, "addr:region": null, "addr:region:ru": null, "addr:region:uk": null, "admin_level": null, "alt_name": null, "alt_name:ar": null, "alt_name:be": null, "alt_name:ca": null, "alt_name:cs": null, "alt_name:de": null, "alt_name:en": null, "alt_name:fi": null, "alt_name:hr": null, "alt_name:it": null, "alt_name:kbd": null, "alt_name:ko": null, "alt_name:mdf": null, "alt_name:myv": null, "alt_name:ru": null, "alt_name:sk": null, "alt_name:sl": null, "alt_name:tr": null, "alt_name:tt": null, "alt_name:uk": null, "alt_name:vi": null, "alt_name:zh": null, "alt_name:zh-Hans": null, "alt_name:zh-Hant": null, "capital": null, "contact:email": null, "contact:facebook": null, "contact:instagram": null, "contact:ok": null, "contact:phone": null, "contact:rutube": null, "contact:telegram": null, "contact:twitter": null, "contact:vk": null, "contact:website": null, "contact:youtube": null, "ele": null, "flag": null, "heritage": null, "heritage:operator": null, "image": null, "int_name": null, "is_capital": null, "is_in:country": null, "is_in:country_code": null, "katotth": null, "koatuu": null, "loc_name": null, "name": null, "name:ab": null, "name:ady": null, "name:af": null, "name:ar": null, "name:ast": null, "name:av": null, "name:avk": null, "name:az": null, "name:az-cyr": null, "name:azb": null, "name:ba": null, "name:be": null, "name:be-tarask": null, "name:bg": null, "name:bn": null, "name:br": null, "name:bs": null, "name:bxr": null, "name:ca": null, "name:ce": null, "name:ceb": null, "name:chm": null, "name:ckb": null, "name:crh": null, "name:crh-cyr": null, "name:cs": null, "name:csb": null, "name:cu": null, "name:cv": null, "name:cy": null, "name:da": null, "name:dar": null, "name:de": null, "name:diq": null, "name:dsb": null, "name:el": null, "name:en": null, "name:eo": null, "name:es": null, "name:et": null, "name:etymology:wikidata": null, "name:eu": null, "name:fa": null, "name:fi": null, "name:fr": null, "name:full": null, "name:fy": null, "name:ga": null, "name:gag": null, "name:gl": null, "name:ha": null, "name:he": null, "name:hi": null, "name:hr": null, "name:hsb": null, "name:hu": null, "name:hy": null, "name:ia": null, "name:id": null, "name:io": null, "name:is": null, "name:it": null, "name:ja": null, "name:jv": null, "name:ka": null, "name:kbd": null, "name:kk": null, "name:kk-Latn": null, "name:kl": null, "name:kn": null, "name:ko": null, "name:koi": null, "name:krc": null, "name:krl": null, "name:ku": null, "name:kum": null, "name:kv": null, "name:ky": null, "name:kz": null, "name:la": null, "name:lad": null, "name:lb": null, "name:lbe": null, "name:lez": null, "name:lmo": null, "name:lt": null, "name:lv": null, "name:mdf": null, "name:mhr": null, "name:min": null, "name:mis": null, "name:mk": null, "name:ml": null, "name:mn": null, "name:mnc": null, "name:mr": null, "name:mrj": null, "name:ms": null, "name:myv": null, "name:mzn": null, "name:nah": null, "name:nb": null, "name:nl": null, "name:nn": null, "name:no": null, "name:oc": null, "name:os": null, "name:os-Latn": null, "name:pa": null, "name:pcd": null, "name:pl": null, "name:pnb": null, "name:pnt": null, "name:prefix": null, "name:pt": null, "name:qu": null, "name:ro": null, "name:roa-rup": null, "name:ru": null, "name:ru:word_stress": null, "name:rue": null, "name:rut": null, "name:sah": null, "name:scn": null, "name:sco": null, "name:se": null, "name:sh": null, "name:sk": null, "name:sl": null, "name:sms": null, "name:sr": null, "name:sr-Latn": null, "name:sty": null, "name:sv": null, "name:sw": null, "name:szl": null, "name:ta": null, "name:tab": null, "name:te": null, "name:tg": null, "name:th": null, "name:tk": null, "name:tl": null, "name:tr": null, "name:tt": null, "name:tt-lat": null, "name:tum": null, "name:tyv": null, "name:tzl": null, "name:udm": null, "name:ug": null, "name:uk": null, "name:ur": null, "name:uz": null, "name:vep": null, "name:vi": null, "name:vo": null, "name:war": null, "name:wo": null, "name:wuu": null, "name:xal": null, "name:xmf": null, "name:yi": null, "name:yue": null, "name:zh": null, "name:zh-Hans": null, "name:zh-Hant": null, "note": null, "official_name": null, "official_name:uk": null, "official_name:zh": null, "official_name:zh-Hans": null, "official_name:zh-Hant": null, "official_status": null, "okato:user": null, "oktmo:user": null, "old_alt_name:vi": null, "old_name": null, "old_name:1255-1946": null, "old_name:1589-1925": null, "old_name:1882-1905": null, "old_name:1882-1905:cs": null, "old_name:1882-1905:en": null, "old_name:1882-1905:ru": null, "old_name:1905-1946": null, "old_name:1905-1946:cs": null, "old_name:1905-1946:en": null, "old_name:1905-1946:ja": null, "old_name:1905-1946:ru": null, "old_name:1905-1946:zh": null, "old_name:1905-1946:zh-Hans": null, "old_name:1905-1946:zh-Hant": null, "old_name:1914-08-31--1924-01-26": null, "old_name:1924-01-26--1991-09-06": null, "old_name:1925-1961": null, "old_name:1931-11-20--1990-07-16": null, "old_name:1932-10-07--1990-10-22": null, "old_name:1935-01-27--1991-01-25": null, "old_name:ar": null, "old_name:ca:1914-08-31--1924-01-26": null, "old_name:ca:1924-01-26--1991-09-06": null, "old_name:ca:1925-1961": null, "old_name:chm": null, "old_name:cs": null, "old_name:cs:1255-1946": null, "old_name:cs:1589-1925": null, "old_name:cs:1924-01-26--1991-09-06": null, "old_name:de": null, "old_name:de:1255-1946": null, "old_name:de:1589-1925": null, "old_name:de:1925-1961": null, "old_name:de:1935-01-27--1991-01-25": null, "old_name:en": null, "old_name:en:1255-1946": null, "old_name:en:1589-1925": null, "old_name:en:1914-08-31--1924-01-26": null, "old_name:en:1924-01-26--1991-09-06": null, "old_name:en:1925-1961": null, "old_name:eo": null, "old_name:eo:1255-1946": null, "old_name:es:1925-1961": null, "old_name:fi": null, "old_name:fr": null, "old_name:fr:1255-1946": null, "old_name:fr:1589-1925": null, "old_name:fr:1893-1925": null, "old_name:fr:1925-1961": null, "old_name:hr": null, "old_name:hr:1589-1925": null, "old_name:hr:1925-1961": null, "old_name:it:1255-1946": null, "old_name:it:1589-1925": null, "old_name:it:1925-1961": null, "old_name:ja:1255-1946": null, "old_name:ko": null, "old_name:ko:1589-1925": null, "old_name:ko:1925-1961": null, "old_name:la:1255-1946": null, "old_name:lt:1255-1946": null, "old_name:nl:1255-1946": null, "old_name:os": null, "old_name:pl:1255-1946": null, "old_name:pl:1946-2023": null, "old_name:ru": null, "old_name:ru:1255-1946": null, "old_name:sk": null, "old_name:sk:1255-1946": null, "old_name:sl": null, "old_name:sr-Latn:1925-1961": null, "old_name:sr:1925-1961": null, "old_name:sv": null, "old_name:tt": null, "old_name:udm": null, "old_name:vi": null, "old_name:vi:1589-1925": null, "old_name:vi:1925-1961": null, "old_name:zh:1255-1946": null, "place": null, "population": null, "population:date": null, "population:source": null, "postal_code": null, "reg_name": null, "short_name": null, "source": null, "source:name": null, "source:name:br": null, "source:name:oc": null, "source:population": null, "source:url": null, "sqkm": null, "start_date": null, "start_date:old_name": null, "watch:Aleksandr_Dezhin": null, "website": null, "wikidata": null, "wikimedia_commons": null, "wikipedia": null, "wikipedia:en": null, "wikipedia:pl": null, "wikipedia:ru": null, "wikipedia:uk": null }, "geometry": { "type": "Point", "coordinates": [ 44.804305629068828, 43.164992313490387 ] } }
]
}
